desc,address,city,province,postal_code
07060,FCTStreet Perfect,,,,
600109010,Certs Test 4,10088 102 AVE NW APT 1406,EDMONTON,AB,5J3N5
600109020,Certs Test 4,1000 PALLADIUM DR APT 68,KANATA,ON,2V1A5
600109030,Certs Test 4,220 4 AVE SE APT 45,CALGARY,AB,2G0L1
600109040,Certs Test 4,1660 RUE ROYALE PH 104,TROIS-RIVIERES,QC,9A0C5
600109050,Certs Test 4,20 YORK MILLS RD TH 165,NORTH YORK,ON,2P2G8
600109060,Certs Test 4,1500 RUE UNIVERSITY PH 899,MONTREAL,QC,3A3S8
600109070,Certs Test 4,999 RUE UNIVERSITY RM 157,MONTREAL,QC,3C5H7
600109080,Certs Test 4,6 LANSING SQ PH 103,NORTH YORK,ON,2J1T9
600109090,Certs Test 4,75 CORPORATE PARK DR TH 3,ST CATHARINES,ON,2S3X9
600109100,Certs Test 4,165 UNIVERSITY AVE PH 708,TORONTO,ON,5H3B9
600112011,Certs Test 4,7954-1201 CAMERON AVE,KELOWNA,BC,1W3S1
600112021,Certs Test 4,3682-23000 DYKE RD,RICHMOND,BC,6V2H2
600112031,Certs Test 4,6677-525 PARK ST,WINKLER,MB,6W1B2
600112042,Certs Test 4,2976-5426 DUNDEE ST,VANCOUVER,BC,5R5Y7
600112054,Certs Test 4,9696-1745 FELL AVE,NORTH VANCOUVER,BC,7P3L4
600112064,Certs Test 4,5270-8531 BENNETT RD,RICHMOND,BC,6Y3M6
600112074,Certs Test 4,4320-305 CALAHOO RD,SPRUCE GROVE,AB,7X3K7
600112084,Certs Test 4,7180-7820 ABERCROMBIE PL,RICHMOND,BC,6Y3M1
600158095,Certs Test 4,BOX 33,LAC-DES-ECORCES,QC,0W1H0
600159005,Certs Test 4,PO BOX 66003 STN MAIN,REGINA,SK,4P3B7
600159015,Certs Test 4,PO BOX 59286 STN DON MILLS,NORTH YORK,ON,3C4C6
600159025,Certs Test 4,PO BOX 52152 STN MAIN,CONCORD,ON,4K5N2
600159035,Certs Test 4,CP 55505 SUCC TERMINUS,QUEBEC,QC,1A0A9
600159045,Certs Test 4,CP 24486 SUCC CENTRE VILLE,MONTREAL,QC,3C5C6
600159055,Certs Test 4,PO BOX 2970 STN MAIN,UXBRIDGE,ON,9P1T2
600159065,Certs Test 4,CP 49751 SUCC CENTRE VILLE,MONTREAL,QC,3C0A4
600159075,Certs Test 4,PO BOX 39675 STN D,SCARBOROUGH,ON,1P0A8
600159085,Certs Test 4,PO BOX 45385 STN M,CALGARY,AB,2P0J5
600159095,Certs Test 4,CP 89703 SUCC CENTRE VILLE,MONTREAL,QC,3C3P8
600160005,Certs Test 4,PO BOX #34885 STN A,OTTAWA,ON,1N9N4
600160015,Certs Test 4,PO BOX #23945 STN MAIN,WINNIPEG,MB,3C4N3
600160025,Certs Test 4,PO BOX #99999 STN FED-GOVT/GOUV,OTTAWA,ON,1A9Z8
600160035,Certs Test 4,PO BOX #99998 STN FED-GOVT/GOUV,OTTAWA,ON,1A9Z7
600160045,Certs Test 4,PO BOX #52797 STN MAIN,PORTAGE LA PRAIRIE,MB,1N3V1
600160055,Certs Test 4,PO BOX #32839 STN MAIN,WINNIPEG,MB,3C5R7
600161001,Certs Test 4,RR 1,ADEYTON,NL,0E2A0
600161011,Certs Test 4,RR 1,VANASTRA,BC,0K1K0
600161021,Certs Test 4,RR 3,PORT GLASGOW,ON,0L2C0
600161031,Certs Test 4,RR 1,OUIMET,ON,0T1K0
600161041,Certs Test 4,RR 3,UPPER SPRINGFIELD,NS,0H1X0
600161051,Certs Test 4,RR 1,APPLEDALE,BC,0G2J0
600161061,Certs Test 4,RR 1,JERRYS NOSE,NL,0N1T0
600161071,Certs Test 4,RR 2,AINSLIE GLEN,NS,0E3M0
600161081,Certs Test 4,RR 1,TILT COVE,NL,0K3M0
600161091,Certs Test 4,RR 1,SMITHFIELD,NS,0H1E0
600162001,Certs Test 4,PO BOX 119,ANGHUSVILLE,MB,0J0A0
600162011,Certs Test 4,CP 80,GRANDE-FIVIERE-OUEST,QC,0C1W0
600162021,Certs Test 4,PO BOX 54,NAKWA,SK,0M1N0
600162031,Certs Test 4,PO BOX 3,EASTAPORT,NL,0G1Z0
600162041,Certs Test 4,CP 301,MIRDOCHVULLE,QC,0E1W0
600162051,Certs Test 4,PO BOX 22,DEEP BROOWK,NS,0S1J0
600162061,Certs Test 4,CP 1130,QAINTE-MONISUE-LAC-SAINT-JEAN,QC,0W2T0
600162071,Certs Test 4,PO BOX 336,PRESPATSOU,BC,0C2S0
600162081,Certs Test 4,PO BOX 254,SOINTUHLA,BC,0N3E0
600162091,Certs Test 4,PO BOX 98,DELTIA,AB,0J0W0
600163001,Certs Test 4,PO BOX 1085 STN MAIN,BGANFF,AB,1L1H9
600163011,Certs Test 4,PO BOX 4310 STN A,TOROHTO,ON,5W3B2
600163021,Certs Test 4,PO BOX 1000 STN MAIN,DHILLIWACK,BC,2P6J6
600163031,Certs Test 4,CP 11089 SUCC CENTRE VILLE,MONTTEAL,QC,3C5C9
600163041,Certs Test 4,PO BOX 3500 STN MAIN,CONCPRD,ON,4K5N3
600163051,Certs Test 4,PO BOX 1179 STN MAIN,STEINBACY,MB,5G1A4
600163061,Certs Test 4,CP 11080 SUCC CENTRE VILLE,MONGREAL,QC,3C5C1
600163071,Certs Test 4,PO BOX 1177 STN CSC,VXICTORIA,BC,8W2V2
600163081,Certs Test 4,PO BOX 4047 STN A,TOZRONTO,ON,5W1L5
600163091,Certs Test 4,PO BOX 1207 STN MAIN,KUINGSTON,ON,7L4Z1
600164001,Certs Test 4,GD,ELNORA,AL,0M0Y0
600164011,Certs Test 4,GD,TUMBLER RIDGE,BRIT COL,0C2W0
600164021,Certs Test 4,GD,PARADISE HILL,SL,0M2G0
600164031,Certs Test 4,GD,LYN,OM,0E1M0
600164041,Certs Test 4,GD,MUSKODAY,SL,0J3H0
600164051,Certs Test 4,GD,TOUROND,BM,0A2G0
600164061,Certs Test 4,GD,STRASBOURG,SL,0G4V0
600164071,Certs Test 4,GD,PORT ELGIN,OM,0H2C0
600164081,Certs Test 4,GD,RICHARDS LANDING,OM,0R1J0
600164091,Certs Test 4,GD,BUNYANS COVE,NF,0C1E0
600165001,Certs Test 4,PO BOX 677,BASSANO,AKBERTA,0J0B0
600165011,Certs Test 4,PO BOX 468,ST BRIEUX,SASKAOTCHEWAN,0K3V0
600165021,Certs Test 4,PO BOX 295,TAVISTOCK,ONFTARIO,0B2R0
600165031,Certs Test 4,RR 12,BEGIN,QUESBEC,0V1B0
600165041,Certs Test 4,RR 3,FRANKFORD,ONTARIOT,0K2C0
600165051,Certs Test 4,RR 1,HOLDFAST,SASKATCHSEWAN,0G2H0
600165061,Certs Test 4,RR 3,LUMBY,BRITISH WCVOLUMBIA,0E2G3
600165071,Certs Test 4,GD,MORSE,SSSKATCHEWAN,0H3C0
600165081,Certs Test 4,RR 4,HARROW,ONTAWRIO,0R1G0
600165091,Certs Test 4,RR 1,ROXTON POND,QUEBED,0E1Z0
600166001,Certs Test 4,100 MCCAUL ST,TORONTO,OM,5T1W1
600166011,Certs Test 4,17569 104 AVE,SURREY,BRIT COL,4N3M4
600166021,Certs Test 4,355 QUEENS RD W,NORTH VANCOUVER,BRIT COL,7N4N5
600166031,Certs Test 4,443 QUEEN ST W,TORONTO,OM,5V2B1
600166041,Certs Test 4,5900 FINCH AVE E APT 1,SCARBOROUGH,OM,1B5Y4
600166051,Certs Test 4,1300 MICHAEL ST,OTTAWA,OM,1B3N2
600166061,Certs Test 4,3600 56 ST APP 300,WETASKIWIN,AL,9A3T5
600166071,Certs Test 4,161 BRIDGELAND AVE,NORTH YORK,OM,6A1Z1
600166081,Certs Test 4,143 UNIVERSITY CAMPUS NW,EDMONTON,AL,6G2N3
600166091,Certs Test 4,1250 BLOHM DR,OTTAWA,OM,1G5R8
600167001,Certs Test 4,PO BOX 14008 STN MAIN,WINNIPEG,,3C0K7
600167011,Certs Test 4,PO BOX 4320 STN MAIN,REGINA,,4P4L3
600167021,Certs Test 4,PO BOX 5650 STN MAIN,WINNIPEG,,3C3K2
600167031,Certs Test 4,PO BOX 6100 STN MAIN,WINNIPEG,,3C4N3
600167041,Certs Test 4,PO BOX 3443 STN D,OTTAWA,,1P6P4
600167051,Certs Test 4,PO BOX 5000 STN MAIN,WINNIPEG,,3C3E8
600167061,Certs Test 4,PO BOX 160 STN MAIN,PRINCE ALBERT,,6V5R6
600170007,Certs Test 4,26 VICTORIA AVE S APP 3,LINDSAY,ON,9V3C8
600170017,Certs Test 4,130 5TH ST W SALLE 203,NORTH VANCOUVER,BC,7M1J8
600170027,Certs Test 4,17 DUNLOP ST TOWNHOUSE 2,KINGSTON,ON,7L1L1
600170037,Certs Test 4,196 RUE DESCHAMBAULT APARTMENT 102,SAINT-JEROME,QC,7Y0B1
600170047,Certs Test 4,1156 RUE DES CASCADES PH 2,SAINT-HYACINTHE,QC,2S3G8
600170057,Certs Test 4,585 O'CONNOR ST APP 17,OTTAWA,ON,1S3R2
600170067,Certs Test 4,601 RUE ANTOINE-GIROUARD PH 3,BOUCHERVILLE,QC,4B3C7
600170077,Certs Test 4,6196 LEXINGTON PL ROOM 101,NANAIMO,BC,9V0A6
600170087,Certs Test 4,1125 RUE ROMAINE SALLE 201,BROSSARD,QC,4X2X8
600170097,Certs Test 4,1727 COMOX ST APP 106,VANCOUVER,BC,6G1P5
600170107,Certs Test 4,777 24E AV APP 2,LACHINE,QC,8S3W4
600170117,Certs Test 4,1091 BATHURST ST TOWNHOUSE 1,TORONTO,ON,5R3G8
600170127,Certs Test 4,1134 GRANDE ALLEE O PIECE 300,QUEBEC,QC,1S1E5
600170137,Certs Test 4,724 AV BROCHU SUITE 1,SEPT-ILES,QC,4R2Y1
600170147,Certs Test 4,4406 46 AVE RM 1,SYLVAN LAKE,AB,4S1W7
600170157,Certs Test 4,235 GEORGE ST APP 1,MIDLAND,ON,4R2W5
600170167,Certs Test 4,2375 RUE JEAN-TALON E SALLE 7,MONTREAL,QC,2E1W1
600170177,Certs Test 4,4118 60 ST APARTMENT 2,CAMROSE,AB,4V3G7
600170187,Certs Test 4,211 GEORGIA ST E APP 103,VANCOUVER,BC,6A1Z6
600170197,Certs Test 4,1055 SOMERSET ST W TH 1,OTTAWA,ON,1Y3C4
600170207,Certs Test 4,332 RUE GUEVREMONT APARTMENT 1,SOREL-TRACY,QC,3P3L4
600170217,Certs Test 4,234 RUE THIBAULT APP 11,MATANE,QC,4W2V9
600170227,Certs Test 4,1417 CH SAINTE-FOY APP 1,QUEBEC,QC,1S2N7
600170237,Certs Test 4,8160 RUE A.-A.-DESROCHES APP 101,MONTREAL,QC,1L2S2
600170247,Certs Test 4,123 RUE AYERS PIECE 1,LACHUTE,QC,8H2T3
600170257,Certs Test 4,280 4TH AVE SUITE 13,KIMBERLEY,BC,1A2R6
600170267,Certs Test 4,542 OMINICA ST E SALLE 2,MOOSE JAW,SK,6H0H3
600170277,Certs Test 4,233 KEARNEY ST PENTHOUSE 146,WINNIPEG,MB,2M4B5
600170287,Certs Test 4,462 BLOOR ST W PH 1,TORONTO,ON,5S1X8
600170297,Certs Test 4,61 RUE CHARPENTIER SALLE 2,GATINEAU,QC,8P2K9
600171007,Certs Test 4,120 LINDSAY ST,QUESNEL,BC,7G5S4
600171017,Certs Test 4,8914 RUE DE GROSBOIS,MONTREAL,QC,7H1P7
600171027,Certs Test 4,75 DIEPPE AVE,ELLIOT LAKE,ON,7R3M7
600171037,Certs Test 4,226 RUE TRUDEL,GATINEAU,QC,1L3J8
600171047,Certs Test 4,32492 BOBCAT DR E,MISSION,BC,1N9A5
600171057,Certs Test 4,5 QUEBEC AVE,TORONTO,ON,9W1M9
600171067,Certs Test 4,21805 45A AVE,LANGLEY,BC,2E6Z6
600171077,Certs Test 4,19 GLADECREST CRT,NEPEAN,ON,4J4Y6
600171087,Certs Test 4,152 CASTLEGROVE BLVD,LONDON,ON,1W3W3
600171097,Certs Test 4,2684 5TH AVE,PORT ALBERNI,BC,7P3N9
600172007,Certs Test 4,3 DECOURCY CRT,MARKHAM,ON,3J7A2
600172017,Certs Test 4,196 CENTENNIAL DR,MONCTON,NB,1L1H3
600172027,Certs Test 4,11686 88 AVE,DELTA,BC,8L3S7
600172037,Certs Test 4,710 BARRYDOWNE RD TOWNHOUSE 8,SUDBURY,ON,7Y1K9
600172047,Certs Test 4,31055 SIDONI AVE,ABBOTSFORD,BC,3C2V6
600172057,Certs Test 4,63 PINNACLE CRES,GUELPH,ON,3C0A7
600172067,Certs Test 4,11515 134A AVE NW,EDMONTON,AB,6B5Z9
600172077,Certs Test 4,396 ROSSMOUNT AVE,OSHAWA,ON,2L4V4
600294099,Certs Test 4,505 AVENUE T S,SASKATOON,SK,7M3B5
600295009,Certs Test 4,46 RUE DE LUCERNE RR 1,SAINTE-BRIGITTE-DE-LAVAL,QC,0A3K0
600295019,Certs Test 4,431 BOUL LAURIER GD,SAINTE-MADELEINE,QC,0H1S0
600295029,Certs Test 4,75 RUE PROVENCHER RR 1,SAINT-ANSELME,QC,0R2N0
600295039,Certs Test 4,716 STATION RD RR 2,CONSECON,ON,0K1T0
600295049,Certs Test 4,30 CH KOZINSKI GD,LA MACAZA,QC,0T1R0
600295059,Certs Test 4,1089 BEARD FARM TRAIL RR 2,COLDWATER,ON,0K1E0
600295069,Certs Test 4,8 BATES AVE RR 2,HANNON,ON,0R1P0
600295079,Certs Test 4,2950 RUE DU LAC-MANSEAU RR 3,SAINTE-JULIENNE,QC,0K2T0
600295089,Certs Test 4,3071 BOUL DES PINS RR 6,SAINTE-MARTHE-SUR-LE-LAC,QC,0N1P0
600295099,Certs Test 4,4550 RUE DES CAYES GD,RIVIERE-PENTECOTE,QC,0H1R0
600295109,Certs Test 4,36 HUNGERFORD ST RR 3,TWEED,ON,0K3J0
600295119,Certs Test 4,11732 COUNTY ROAD 4 RR 1,MORRISBURG,ON,0C1X0
600295129,Certs Test 4,548 RUE DE LA BERGERIE RR 2,L'ORIGNAL,ON,0B1K0
600295139,Certs Test 4,7409 9TH AVE RR 5,FERNIE,BC,0B1M5
600295149,Certs Test 4,669 DES ERABLES PROM RR 4,CASSELMAN,ON,0A1M0
600295159,Certs Test 4,214622 BASELINE RD RR 1,NEUSTADT,ON,0G2M0
600295169,Certs Test 4,1305 RTE DU 5E-RANG RR 1,BEAULAC-GARTHBY,QC,0Y1B0
600295179,Certs Test 4,100 RUE DES ETANGS GD,MANOUANE,QC,0K1M0
600295189,Certs Test 4,1345 RUE JACQUES RR 3,VAL-DAVID,QC,0T2N0
600295199,Certs Test 4,36 WEST LANE ST RR 4,CAMPBELLFORD,ON,0L1L0
600295209,Certs Test 4,357 RUE NOTRE-DAME O RR 1,CAP-CHAT,QC,0J1E0
600295219,Certs Test 4,286 RANG SAINT-GUILLAUME RR 2,HONFLEUR,QC,0R1N0
600295229,Certs Test 4,44 RUE SAINT-ANTOINE GD,SAINTE-LUCE,QC,0K1P0
600295239,Certs Test 4,477 5 RR 3,ALLENFORD,ON,0H1A0
600295249,Certs Test 4,1629A CANNING RD RR 1,SEVERN BRIDGE,ON,0E1N0
600295259,Certs Test 4,157 ST CATHARINES ST GD,SMITHVILLE,ON,0R2A0
600295269,Certs Test 4,302 RUE PRINCIPALE GD,SAINT-ROBERT,QC,0G1S0
600295279,Certs Test 4,13 HUNTERS CRT SS 4,FONTHILL,ON,0S1E4
600295289,Certs Test 4,12026 RIDGE LINE RR 2,RIDGETOWN,ON,0P2C0
600295299,Certs Test 4,62 SHAW ISLAND RD RR 1,CHESTER BASIN,NS,0J1K0
600295309,Certs Test 4,110205 HWY 7 RR 3,TWEED,ON,0K3J0
600295319,Certs Test 4,120 LOWER ROLLO BAY RD GD,SOURIS,PE,0A2B0
600295329,Certs Test 4,96 12 EAST ARRAN CONC RR 3,TARA,ON,0H2N0
600295339,Certs Test 4,2272 14E AV GD,SAINT-PROSPER-DE-DORCHESTER,QC,0M1Y0
600295349,Certs Test 4,372 LAJOIE RD RR 2,MARMORA,ON,0K2M0
600295359,Certs Test 4,4212 CH DE LA BERNACHE RR 1,SAINT-UBALDE,QC,0A4L0
600295369,Certs Test 4,30 CH GERARD-BOUCHARD RR 2,CABANO,QC,0L1E0
600295379,Certs Test 4,619 NIMPKISH HEIGHTS RD RR 1,PORT MCNEILL,BC,0N2R0
600295389,Certs Test 4,1140 CH DES EPERVIERS RR 2,SAINT-LAMBERT-DE-LAUZON,QC,0S2W0
600295399,Certs Test 4,103 CH LABELLE RR 3,GRACEFIELD,QC,0X1W0
600295409,Certs Test 4,11721 SPRUIT RD RR 3,MOUNTAIN,ON,0E1S0
600295419,Certs Test 4,7 HARDY HTS RR 1,ONAPING,ON,0M2R0
600295429,Certs Test 4,18017 MCCOWAN RD RR 1,CEDAR VALLEY,ON,0G1E0
600295439,Certs Test 4,44 MAPLE ST RR 2,DRAYTON,ON,0G1P0
600295449,Certs Test 4,52 CH ST-PIERRE RR 3,SAINT-ANDRE-AVELLIN,QC,0V1W0
600295459,Certs Test 4,351675 LONGFIELD ST GD,MOUNT BRYDGES,ON,0L1W0
600295469,Certs Test 4,101 RUE DU COUVENT RR 1,ARMAGH,QC,0R1A0
600295479,Certs Test 4,8361 HAGEN RD SS 1,HEFFLEY CREEK,BC,0E1Z1
600295489,Certs Test 4,1092 CROOKSTON RD RR 5,MADOC,ON,0K2K0
600295499,Certs Test 4,104 SPENCERS TRAIL RR 1,KINMOUNT,ON,0M2A0
600295509,Certs Test 4,96 RUE VILLERAY GD,L'ISLE-VERTE,QC,0L1L0
600295519,Certs Test 4,8 CERCLE VANESSA RR 3,CASSELMAN,ON,0A1M0
600295529,Certs Test 4,1099 CARTWRIGHT RD RR 1,GIBSONS,BC,0N1V1
600295539,Certs Test 4,857 201 RTE RR 1,ORMSTOWN,QC,0S1K0
600295549,Certs Test 4,5 CH PENELLE RR 1,SAINT-LIBOIRE,QC,0H1R0
600295559,Certs Test 4,48 MONTEE DES BOULEAUX RR 6,SAINT-NARCISSE-DE-RIMOUSKI,QC,0K1S0
600295569,Certs Test 4,15803 COUNTY RD 29 RR 1,LUNENBURG,ON,0C1R0
600295579,Certs Test 4,148 RUE DE LA GORGENDIERE GD,SAINT-JOSEPH-DE-BEAUCE,QC,0S2V0
600295589,Certs Test 4,419 RUE BRUNETTE RR 3,RIGAUD,QC,0P1P0
600295599,Certs Test 4,203 STONEGATE RD RR 1,INNERKIP,ON,0J1M0
600295609,Certs Test 4,765 JACKSON BARKHOUSE RD RR 1,CANNING,NS,0P1H0
600295619,Certs Test 4,1610 RUE MADO RR 2,SAINT-MICHEL,QC,0L2J0
600295629,Certs Test 4,2 CH LAPRADE RR 1,BOWMAN,QC,0X3C0
600295639,Certs Test 4,455 10E RANG E RR 142,STOKE,QC,0B3G0
600295649,Certs Test 4,432 PRANGS RD RR 1,MONETVILLE,ON,0M2K0
600295659,Certs Test 4,46 SLALOM DR RR 4,FERNIE,BC,0B1M4
600295669,Certs Test 4,2116 RUE BECANCOUR RR 1,LYSTER,QC,0S1V0
600295679,Certs Test 4,25 RUE DU COLLEGE RR 1,SAINT-EPHREM-DE-BEAUCE,QC,0M1R0
600295689,Certs Test 4,10 BASSWOOD ST RR 1,OMEMEE,ON,0L2W0
600295699,Certs Test 4,350 4E RANG RR 5,SAINT-CHRYSOSTOME,QC,0S1R0
600295709,Certs Test 4,31 YARWOOD RD RR 1,PERKINSFIELD,ON,0L2J0
600295719,Certs Test 4,1783 HUNT CLUB RD RR 2,MADOC,ON,0K2K0
600295729,Certs Test 4,216 RUE DU BOISE RR 3,SAINT-GILLES,QC,0S2P0
600295739,Certs Test 4,3 205E AV. DE LA MERCI RR 1,SAINT-COME,QC,0K2B0
600295749,Certs Test 4,3065 CAMPBELL RD RR 3,HARROWSMITH,ON,0H1V0
600295759,Certs Test 4,1372 DIVISION RD RR 1,INDIAN RIVER,ON,0L2B0
600295769,Certs Test 4,173 HERITAGE RIVER RD RR 1,ALBAN,ON,0M1A0
600295779,Certs Test 4,17048 POST RD RR 1,ST ANDREWS WEST,ON,0C2A0
600295789,Certs Test 4,780 MILL ST SS 4,PORT ELGIN,ON,0H2C4
600295799,Certs Test 4,177 CH BELIVEAU RR 1,CHARTIERVILLE,QC,0B1K0
600295809,Certs Test 4,81 BOUL GERARD-D.-LEVESQUE E GD,PASPEBIAC,QC,0C2K0
600295819,Certs Test 4,1461 OLD WOOLER RD RR 1,WOOLER,ON,0K3M0
600295829,Certs Test 4,79 PLACE AUGER RR 2,SAINT-BONIFACE-DE-SHAWINIGAN,QC,0X2L0
600295839,Certs Test 4,115 RUE J.-L.-BRISEBOIS RR 1,SAINT-ADOLPHE-D'HOWARD,QC,0T2B0
600295849,Certs Test 4,45 GOODSON RD RR 1,APSLEY,ON,0L1A0
600295859,Certs Test 4,6256 CH DU LAC-CLAIR NORD RR 2,RAWDON,QC,0K1S0
600295869,Certs Test 4,29 STONEGLEN WAY RR 3,MOUNT HOPE,ON,0R1W0
600295879,Certs Test 4,752 BALSER DR RR 1,KINGSTON,NS,0P1R0
600295889,Certs Test 4,1048 RUE LOISEAU RR 15,POINTE-CALUMET,QC,0N1G5
600295899,Certs Test 4,387 132 RTE GD,SAINT-SIMON-DE-RIMOUSKI,QC,0L4C0
600295909,Certs Test 4,1 HORNER CRT RR 1,ZEPHYR,ON,0E1T0
600295919,Certs Test 4,764 CH DES SABLES RR 2,ASCOT CORNER,QC,0B1A0
600295929,Certs Test 4,105 RUE JACQUES RR 1,SAINT-JEAN-DE-MATHA,QC,0K2S0
600295939,Certs Test 4,7 VALLEY RD GD,LEVACK,ON,0M2C0
600295949,Certs Test 4,3 MOONEY ST GD,CAPREOL,ON,0M1H0
600295959,Certs Test 4,35 RUE DE L'ANSE-AUX-FOINS RR 2,SAINT-FULGENCE,QC,0V1S0
600295969,Certs Test 4,1014 CH DE LA POINTE-DU-LAC RR 1,BOILEAU,QC,0V1N0
600295979,Certs Test 4,39 PARNHAM CRES GD,WILLOW BEACH,ON,0E1S0
600300969,Certs Test 4,PO BOX 21086 RPO DAWSON MALL,DAWSON CREEK,BC,1G4X8
600300979,Certs Test 4,PO BOX 6856 STN MAIN,QUESNEL,BC,2J3J5
600300989,Certs Test 4,PO BOX 469 STN MAIN,OWEN SOUND,ON,4K5P7
600301004,Certs Test 4,RR 2 LCD 1,NEWMARKET,ON,3Y4V9
600301014,Certs Test 4,SS 2 SUCC BUREAU-CHEF,WINDSOR,QC,1S2L5
600301024,Certs Test 4,RR 2 STN MAIN,DUNNVILLE,ON,1A2W2
600301034,Certs Test 4,SS 12 STN DEL CTR,MAPLE RIDGE,BC,3Y1Z2
600301044,Certs Test 4,RR 1 STN MAIN,ROCKLAND,ON,4K1K7
600301054,Certs Test 4,RR 4 STN MAIN,GODERICH,ON,7A3Y1
600301064,Certs Test 4,RR 3 STN MAIN,TRENTON,ON,8V5P6
600301074,Certs Test 4,RR 5 STN MAIN,PORT PERRY,ON,9L1B6
600301084,Certs Test 4,RR 31 STN PRESTON,CAMBRIDGE,ON,3H4R6
600301094,Certs Test 4,RR 2 SUCC BUREAU-CHEF,SHAWINIGAN,QC,9N6T6
600301104,Certs Test 4,RR 1 STN MAIN,PICKERING,ON,1V2P8
600301114,Certs Test 4,RR 1 STN LCD 1,BURLINGTON,ON,7R3X4
600301124,Certs Test 4,RR 1 STN MAIN,NEW GLASGOW,NS,2H5C4
600301134,Certs Test 4,RR 2 STN MAIN,FORT SASKATCHEWAN,AB,8L2N8
600301144,Certs Test 4,RR 9 STN MAIN,CHATHAM,ON,7M5T1
600301154,Certs Test 4,RR 1 STN MAIN,BRADFORD,ON,3Z2A4
600301164,Certs Test 4,RR 4 SUCC BUREAU-CHEF,DRUMMONDVILLE,QC,2B6V4
600301174,Certs Test 4,RR 5 STN MAIN,STRATHROY,ON,7G3H6
600301184,Certs Test 4,RR 6 STN MAIN,OWEN SOUND,ON,4K5N8
600301194,Certs Test 4,RR 1 STN MAIN,STONY PLAIN,AB,7Z1X1
600301204,Certs Test 4,RR 4 STN MAIN,DAUPHIN,MB,7N2T7
600301214,Certs Test 4,RR 1 SUCC BUREAU-CHEF,SEPT-ILES,QC,4R4K1
600301224,Certs Test 4,RR 3 STN MAIN,TIMMINS,ON,4N8R8
600301234,Certs Test 4,RR 2 LCD MAIN,SASKATOON,SK,7K3J5
600301244,Certs Test 4,RR 2 STN MAIN,RUSSELL,ON,4R1E5
600301254,Certs Test 4,RR 3 STN MAIN,KINGSTON,ON,7L4V2
600301264,Certs Test 4,RR 5 STN MAIN,PEMBROKE,ON,8A6W6
600301274,Certs Test 4,RR 1 STN MAIN,HANOVER,ON,4N3B8
600301284,Certs Test 4,RR 4 SUCC BUREAU-CHEF,BELOEIL,QC,3G4S6
600301294,Certs Test 4,RR 2 STN MAIN,INNISFAIL,AB,4G1T7
600301304,Certs Test 4,RR 2 SUCC BUREAU-CHEF,LA TUQUE,QC,9X3N7
600301314,Certs Test 4,RR 5 SUCC BUREAU-CHEF,MONT-LAURIER,QC,9L3G7
600301324,Certs Test 4,RR 2 STN MAIN,DAUPHIN,MB,7N2T5
600301334,Certs Test 4,RR 63 SUCC BUREAU-CHEF,SAINT-BASILE-LE-GRAND,QC,3N1M3
600301344,Certs Test 4,RR 5 SUCC BUREAU-CHEF,VAL-D'OR,QC,9P0C3
600301354,Certs Test 4,RR 4 STN MAIN,LACOMBE,AB,4L2N4
600301364,Certs Test 4,RR 2 STN MAIN,PORT STANLEY,ON,5L1J2
600301374,Certs Test 4,RR 3 LCD 1,RED DEER,AB,4N5E3
600301384,Certs Test 4,RR 1 STN MAIN,TIMMINS,ON,4N8R7
600301394,Certs Test 4,RR 1 STN MAIN,NORTH BAY,ON,1B8G2
600301404,Certs Test 4,RR 2 STN MAIN,ST. ALBERT,AB,8N1M9
600301414,Certs Test 4,RR 1 STN DELIVERY CENTRE,PETERBOROUGH,ON,9J6X2
600301424,Certs Test 4,RR 3 STN MAIN,DRAYTON VALLEY,AB,7A2A3
600301434,Certs Test 4,SS 4 STN MAIN,STEINBACH,MB,5G0N6
600301444,Certs Test 4,RR 7 LCD MAIN,WOODSTOCK,ON,4S7W2
600301454,Certs Test 4,RR 1 STN MAIN,WOODBRIDGE,ON,4L1A5
600301464,Certs Test 4,RR 3 STN MAIN,NAPANEE,ON,7R3K8
600301474,Certs Test 4,RR 2 STN MAIN,ALLISTON,ON,9R1V2
600301484,Certs Test 4,RR 4 STN MAIN,ROTHESAY,NB,2E4Z8
600301494,Certs Test 4,RR 32 STN PRESTON,CAMBRIDGE,ON,3H4R7
600301504,Certs Test 4,RR 33 STN MAIN,CHILLIWACK,BC,2P6H5
600301514,Certs Test 4,RR 1 STN MAIN,SARNIA,ON,7T7H2
600301524,Certs Test 4,RR 2 STN MAIN,ST MARYS,ON,4X1C5
600301534,Certs Test 4,RR 5 STN MAIN,SIMCOE,ON,3Y4K4
600301544,Certs Test 4,SS 2 STN MAIN,HUNTSVILLE,ON,1H2E3
600301554,Certs Test 4,SS 11 STN MAIN,CALEDONIA,ON,3W2G9
600301564,Certs Test 4,RR 13 SUCC BUREAU-CHEF,LA SARRE,QC,9Z2X2
600301574,Certs Test 4,SS 5 STN MAIN,HUNTSVILLE,ON,1H2E6
600301584,Certs Test 4,RR 4 STN MAIN,OWEN SOUND,ON,4K5N6
600301594,Certs Test 4,RR 4 STN MAIN,NORTH BAY,ON,1B8G5
600301604,Certs Test 4,RR 1 STN MAIN,HUNTSVILLE,ON,1H2J2
600301614,Certs Test 4,SS 3 STN B,STITTSVILLE,ON,2S1C2
600301624,Certs Test 4,RR 6 SUCC BUREAU-CHEF,SAINT-JEAN-CHRYSOSTOME,QC,6Z2L1
600301634,Certs Test 4,RR 91 SUCC LEVIS,LEVIS,QC,6V6N4
600301644,Certs Test 4,SS 2 STN MAIN,BRACEBRIDGE,ON,1L1X9
600301654,Certs Test 4,RR 3 SUCC BUREAU-CHEF,NICOLET,QC,3T1T7
600301664,Certs Test 4,SS 5 STN MAIN,TABER,AB,1G0A1
600301674,Certs Test 4,RR 2 STN MAIN,BOWMANVILLE,ON,1C3K3
600301684,Certs Test 4,RR 4 STN MAIN,OLDS,AB,4H1T8
600301694,Certs Test 4,RR 1 STN MAIN,OWEN SOUND,ON,4K5N3
600301704,Certs Test 4,SS 2 STN MAIN,MEADOW LAKE,SK,9X1T8
600301714,Certs Test 4,RR 6 STN GALT,CAMBRIDGE,ON,1R5S7
600301724,Certs Test 4,RR 4 STN MAIN,HUNTSVILLE,ON,1H2J6
600301734,Certs Test 4,RR 3 STN MAIN,PORTAGE LA PRAIRIE,MB,1N3A3
600301744,Certs Test 4,SS 4 STN MAIN,ROCKLAND,ON,4K1K9
600301754,Certs Test 4,RR 1 STN MAIN,FORT SASKATCHEWAN,AB,8L2N7
600301764,Certs Test 4,SS 77 SUCC BUREAU-CHEF,REPENTIGNY,QC,6A5H5
600301774,Certs Test 4,RR 3 STN MAIN,BARRHEAD,AB,7N1N4
600301784,Certs Test 4,RR 3 STN MAIN,GRANDE PRAIRIE,AB,8V5N3
600301794,Certs Test 4,RR 2 STN MAIN,BROCKVILLE,ON,6V5T2
600301804,Certs Test 4,SS 103 SUCC BUREAU-CHEF,CHAMBLY,QC,3L4A7
600301814,Certs Test 4,RR 6 STN MAIN,TILLSONBURG,ON,4G4G9
600301824,Certs Test 4,RR 7 LCD ROYAL CITY MAIL,GUELPH,ON,1H6J4
600301834,Certs Test 4,RR 1 STN MAIN,GEORGETOWN,ON,7G4S4
600301844,Certs Test 4,RR 5 LCD MAIN,SASKATOON,SK,7K3J8
600301854,Certs Test 4,RR 3 SUCC BUREAU-CHEF,SAINTE-JULIE,QC,3E1Y2
600301864,Certs Test 4,RR 2 STN TECUMSEH,WINDSOR,ON,8N2M1
600301874,Certs Test 4,RR 1 STN MAIN,KESWICK,ON,4P3C8
600301884,Certs Test 4,SS 103 SUCC BUREAU-CHEF,GRANBY,QC,2H0R2
600301894,Certs Test 4,RR 66 LCD S,OTTAWA,ON,1T3Z4
600301904,Certs Test 4,RR 7 LCD 1,CALGARY,AB,2P2G7
600301914,Certs Test 4,RR 14 STN P,THUNDER BAY,ON,7B5E5
600301924,Certs Test 4,RR 2 STN MAIN,PONOKA,AB,4J1R2
600301934,Certs Test 4,RR 6 STN MAIN,ST THOMAS,ON,5P3T1
600301944,Certs Test 4,RR 1 STN MAIN,CLARENVILLE,NL,5A3A1
600301954,Certs Test 4,RR 2 STN MAIN,NEW GLASGOW,NS,2H5C5
600301964,Certs Test 4,RR 1 STN MAIN,KENTVILLE,NS,4N3V7
600301974,Certs Test 4,RR 5 STN MAIN,YARMOUTH,NS,5A4A9
600301984,Certs Test 4,RR 2 STN MAIN,SUMMERSIDE,PE,1N4J8
600301994,Certs Test 4,RR 1 SUCC BUREAU-CHEF,MATANE,QC,4W3M7
600302010,Certs Test 4,PO BOX 9434 STN PROV GOVT,VICTORIA,BC,8W9V3
600302020,Certs Test 4,PO BOX 6249 STN J,OTTAWA,ON,2A1T3
600302030,Certs Test 4,PO BOX 45019 RPO BRENTWOOD,CALGARY,AB,2L1Y4
600302040,Certs Test 4,CP 50034 CSP PLACE MT-MARIE,LEVIS,QC,6V8T2
600302050,Certs Test 4,PO BOX 258 STN MAIN,GRAVENHURST,ON,1P1T6
600302060,Certs Test 4,PO BOX 4030 STN DEL CTR,ABBOTSFORD,BC,2S4P4
600302070,Certs Test 4,PO BOX 805 STN LCD 1,HAMILTON,ON,8N3M8
600302080,Certs Test 4,PO BOX 67908 STN BRM B,TORONTO,ON,7Y4N1
600302090,Certs Test 4,PO BOX 22 STN MAIN,AURORA,ON,4G3H1
600302100,Certs Test 4,PO BOX 14 STN MAIN,BOWMANVILLE,ON,1C3K8
600302110,Certs Test 4,PO BOX 2026 STN MAIN,ROTHESAY,NB,2E5C1
600302120,Certs Test 4,CP 4076 SUCC BUREAU-CHEF,PONT-ROUGE,QC,3H3R4
600302130,Certs Test 4,CP 2013 SUCC BUREAU-CHEF,BAIE-COMEAU,QC,5C2S8
600302140,Certs Test 4,PO BOX 171 STN MAIN,GREELY,ON,4P1N5
600302150,Certs Test 4,CP 636 SUCC BUREAU-CHEF,THETFORD MINES,QC,6G5T6
600302160,Certs Test 4,PO BOX 46046 RPO BEACON HILL,GLOUCESTER,ON,1J9M7
600302170,Certs Test 4,PO BOX 5697 STN MAIN,LACOMBE,AB,4L1X3
600302180,Certs Test 4,PO BOX 9002 STN C,KITCHENER,ON,2G4J3
600302190,Certs Test 4,PO BOX 2016 STN MAIN,WHITECOURT,AB,7S1P7
600302200,Certs Test 4,PO BOX 1349 STN LCD MALTON,MISSISSAUGA,ON,4T4C2
600302210,Certs Test 4,CP 1282 SUCC BUREAU-CHEF,SOREL-TRACY,QC,3P7L5
600302220,Certs Test 4,PO BOX 22027 RPO PARKLAND,YORKTON,SK,3N4B2
600302230,Certs Test 4,PO BOX 2874 STN M,CALGARY,AB,2P3C3
600302240,Certs Test 4,PO BOX 37024 RPO SOUTHDALE,LONDON,ON,6E3T3
600302250,Certs Test 4,PO BOX 75637 RPO BROADVIEW,TORONTO,ON,4M3M5
600302260,Certs Test 4,PO BOX 6880 STN MAIN,WETASKIWIN,AB,9A2G5
600302270,Certs Test 4,PO BOX 829 STN MAIN,GRAND FALLS-WINDSOR,NL,2A2P7
600302280,Certs Test 4,PO BOX 5554 STN MAIN,LACOMBE,AB,4L1X2
600302290,Certs Test 4,PO BOX 990 STN MAIN,KIRKLAND LAKE,ON,2N3L1
600302300,Certs Test 4,PO BOX 20003 RPO SOUTHBROOK,MAPLE,ON,6A4M4
600302310,Certs Test 4,PO BOX 315 STN MAIN,ACTON,ON,7J2M4
600302320,Certs Test 4,PO BOX 1789 STN MAIN,SASKATOON,SK,7K3S1
600302330,Certs Test 4,PO BOX 97103 LCD 2,MISSISSAUGA,ON,4Y0A6
600302340,Certs Test 4,PO BOX 889 STN MAIN,KINGSTON,ON,7L4X8
600302350,Certs Test 4,PO BOX 3052 STN MAIN,ST CATHARINES,ON,2R7E3
600302360,Certs Test 4,PO BOX 590 STN MAIN,KINGSTON,ON,7L4X1
600302370,Certs Test 4,PO BOX 3606 STN MAIN,WAINWRIGHT,AB,9W1T5
600302380,Certs Test 4,PO BOX 833 STN DON MILLS,NORTH YORK,ON,3C4G5
600302390,Certs Test 4,PO BOX 259 STN MAIN,PORT MOODY,BC,3H3E1
600302400,Certs Test 4,PO BOX 2058 STN MAIN,COLD LAKE,AB,9M1P5
600302410,Certs Test 4,PO BOX 2589 STN CENTRAL,CHARLOTTETOWN,PE,1A8C3
600302420,Certs Test 4,PO BOX 4489 STN A,TORONTO,ON,5W1V9
600302430,Certs Test 4,PO BOX 841 STN WATERLOO,WATERLOO,ON,2J4C3
600302440,Certs Test 4,PO BOX 41 STN MAIN,THOROLD,ON,2V3Y7
600302450,Certs Test 4,PO BOX 294 STN MAIN,EDMUNDSTON,NB,3V3K9
600302460,Certs Test 4,PO BOX 1095 STN TORONTO DOM,TORONTO,ON,5K1P2
600302470,Certs Test 4,PO BOX 4823 STN TERMINAL,VANCOUVER,BC,6B4A4
600302480,Certs Test 4,PO BOX 730 STN MAIN,GOULDS,NL,1S1G7
600302490,Certs Test 4,PO BOX 1004 STN MAIN,INGERSOLL,ON,5C3V6
600302500,Certs Test 4,PO BOX 2994 STN MAIN,WAINWRIGHT,AB,9W1S9
600302510,Certs Test 4,PO BOX 5314 STN MAIN,EDSON,AB,7E1T5
600302520,Certs Test 4,PO BOX 582 STN LAMBETH,LONDON,ON,6P1R2
600302530,Certs Test 4,PO BOX 9274 STN PROV GOVT,VICTORIA,BC,8W9J6
600302540,Certs Test 4,CP 37 SUCC BUREAU-CHEF,VICTORIAVILLE,QC,6P6S4
600302550,Certs Test 4,PO BOX 645 STN A,NANAIMO,BC,9R5L9
600302560,Certs Test 4,PO BOX 3112 STN MAIN,WALLACEBURG,ON,8A9R4
600302570,Certs Test 4,PO BOX 94078 RPO BEDFORD PARK,TORONTO,ON,4N3R1
600302580,Certs Test 4,PO BOX 950 STN MAIN,MORDEN,MB,6M1A8
600302590,Certs Test 4,PO BOX 294 STN TORONTO DOM,TORONTO,ON,5K1K2
600302600,Certs Test 4,PO BOX 1340 STN A,COMOX,BC,9M7Z8
600302610,Certs Test 4,PO BOX 4611 STN A,TORONTO,ON,5W1V9
600302620,Certs Test 4,PO BOX 34526 RPO PEMBERTON PLAZA,NORTH VANCOUVER,BC,7P3N8
600305615,Certs Test 4,404 EMERALD ST,KINGSTON,ON,7P3E3
600305625,Certs Test 4,3262 STONEY RIDGE,NANAIMO,BC,9T5V2
600305635,Certs Test 4,12662 WESTON RD,KING CITY,ON,7B1K4
600305645,Certs Test 4,104 GREAT LAKES DR,BRAMPTON,ON,6R2K7
600305655,Certs Test 4,44 DOUGLASBANK WAY SE,CALGARY,AB,2Z1W7
600305665,Certs Test 4,59 RUE DU NORDET,BAIE-SAINT-PAUL,QC,3Z3C2
600305675,Certs Test 4,95 CH DES GAUDET,L'ETANG-DU-NORD,QC,4T3N6
600305685,Certs Test 4,307 GREENWOOD AVE,SELKIRK,MB,1A1H8
600305695,Certs Test 4,112 RUE DE LA BAIE,GATINEAU,QC,8T3H7
600305705,Certs Test 4,3757 JINGLE POT RD,NANAIMO,BC,9R6X2
600305715,Certs Test 4,8112 81 AVE NW,EDMONTON,AB,6C0V9
600305725,Certs Test 4,722 PARK ROYAL N,WEST VANCOUVER,BC,7T1H9
600305735,Certs Test 4,12 PEPPERMINT CLOSE,BRAMPTON,ON,6P3C6
600305745,Certs Test 4,61 RUE DE LONGUEUIL,SAINT-BASILE-LE-GRAND,QC,3N1H3
600305755,Certs Test 4,9 BELVEDERE CRES,RICHMOND HILL,ON,4C8W3
600305765,Certs Test 4,125 COLUMBIA AVE,OTTAWA,ON,1V1Z2
600305775,Certs Test 4,96 METCALFE ST,WOODSTOCK,ON,4S3E8
600305785,Certs Test 4,24 INGOLD AVE,NEW HAMBURG,ON,3A2G8
600305795,Certs Test 4,391 LUXTON AVE W,WINNIPEG,MB,2W0M1
600305805,Certs Test 4,938 WEATHERDON AVE,WINNIPEG,MB,3M2C1
600305815,Certs Test 4,2394 RUE DE LA TRAVERSE,CHARNY,QC,6X2M9
600305825,Certs Test 4,7303 98 ST,PEACE RIVER,AB,8S1E2
600305835,Certs Test 4,8 BRISTOW CRES,SPRUCE GROVE,AB,7X2C9
600305845,Certs Test 4,2037 47 AVE SW,CALGARY,AB,2T2S7
600305855,Certs Test 4,6 SILVERSTREAM RD,BRAMPTON,ON,6Z4L2
600305865,Certs Test 4,12 REDSTART DR,CAMBRIDGE,ON,1T2K3
600305875,Certs Test 4,1093 ROUTE 595,CENTRAL WATERVILLE,NB,6G2K4
600305885,Certs Test 4,230 RUE COTE,MATANE,QC,4W1P2
600305895,Certs Test 4,6 LOTUS CRT,NORTH YORK,ON,2H1J7
600305905,Certs Test 4,96 WATERS BLVD,MILTON,ON,9T6K4
600305915,Certs Test 4,63 EZRA AVE,WATERLOO,ON,2L3A9
600305925,Certs Test 4,17 WHITE DR,GROVES POINT,NS,1Y2B3
600305935,Certs Test 4,14 SILVERADO TRAIL,WOODBRIDGE,ON,4H1V7
600305945,Certs Test 4,18013 96 AVE NW,EDMONTON,AB,5T2Z3
600305955,Certs Test 4,4336 BROAD OAKS PL,THUNDER BAY,ON,7J1A8
600305965,Certs Test 4,2139 BOUNDARY AVE,NANAIMO,BC,9S4P6
600305975,Certs Test 4,7 LYLE CLOSE,SYLVAN LAKE,AB,4S2M8
600305985,Certs Test 4,5725 48 ST,VEGREVILLE,AB,9C1G9
600305995,Certs Test 4,11217 MADDOCK AVE,OKANAGAN CENTRE,BC,4V2J7
600306010,Certs Test 4,10257 85A ST,GRANDE PRAIRIE,AB,8X0K2
600306020,Certs Test 4,35 BELLWOOD AVE,OTTAWA,ON,1S1S6
600306030,Certs Test 4,167 WISSLER RD,WATERLOO,ON,2K3Y6
600306040,Certs Test 4,513 HILL ST,LONDON,ON,6B1E8
600306050,Certs Test 4,4 RUE DE LA PLEIADE,SAINT-JEAN-SUR-RICHELIEU,QC,2W1N3
600306060,Certs Test 4,322 RUE JOFFRE,CHICOUTIMI,QC,7G3S3
600306070,Certs Test 4,47 RUE LE MOYNE O,LONGUEUIL,QC,4H1V4
600306080,Certs Test 4,46 EDENBRIDGE DR,ETOBICOKE,ON,9A3G1
600306090,Certs Test 4,105 PLACE DES DUNES,BOIS-DES-FILION,QC,6Z4V9
600306100,Certs Test 4,130 CH DU LAC-HOUSTON,VAL-DES-MONTS,QC,8N3A7
600306110,Certs Test 4,18453 66 AVE,SURREY,BC,3S8V6
600306120,Certs Test 4,1917 WEBSTER BLVD,INNISFIL,ON,9S2A6
600306130,Certs Test 4,7921 RUE THELMA,LASALLE,QC,8P1W9
600306140,Certs Test 4,605 RUE LE BRETON,LONGUEUIL,QC,4G1R9
600306150,Certs Test 4,58 RUE DUBOIS,VARENNES,QC,3X1J9
600306160,Certs Test 4,153 NEW ENGLAND RD,NEW ENGLAND SETTLEMENT,NB,4B3S6
600306170,Certs Test 4,24 BEAUMONT BAY,WINNIPEG,MB,3T0N1
600306180,Certs Test 4,20 EDGAR DR,BRANTFORD,ON,3R6X8
600306190,Certs Test 4,36 RUE MADAWASKA,SAINT-JACQUES,NB,7B1L4
600306200,Certs Test 4,7 LONSDALE AVE,ST CATHARINES,ON,2P1G8
600306210,Certs Test 4,1371 AV BOURGOGNE,CHAMBLY,QC,3L1Y4
600306220,Certs Test 4,76 WILLOW PARK ESTATE,LEDUC,AB,9E5R5
600306230,Certs Test 4,555 RAINBOW CRES,SHERWOOD PARK,AB,8A5M7
600306240,Certs Test 4,8426 WILLOUGHBY DR,NIAGARA FALLS,ON,2G6X5
600306250,Certs Test 4,29 YORK ST,BRACEBRIDGE,ON,1L1J5
600306260,Certs Test 4,86 CRAIG CRES,GEORGETOWN,ON,7G5L4
600306270,Certs Test 4,2051 BROTHERS RD,NANAIMO,BC,9X1R8
600306280,Certs Test 4,60 HEATH ST,RICHMOND HILL,ON,4B2B8
600306290,Certs Test 4,13850 TALBOT RD,OYAMA,BC,4V2C2
600306300,Certs Test 4,2210 QUAIL GROVE PL,NANAIMO,BC,9X1H8
600306310,Certs Test 4,437 3E AV,MONT-LAURIER,QC,9L3C1
600306320,Certs Test 4,1099 RUE DES MESANGES,LA BAIE,QC,7B4M3
600306330,Certs Test 4,40 RAVENSBOURNE CRES,ETOBICOKE,ON,9A2A8
600306340,Certs Test 4,473 RUE SHORT,SHERBROOKE,QC,1H2E6
600306350,Certs Test 4,2107 10A ST,COALDALE,AB,1M1C1
600306360,Certs Test 4,61 RUE ANDRE,SAINT-JEROME,QC,7Y1B8
600306370,Certs Test 4,8 WESLEYAN ST,GEORGETOWN,ON,7G2E1
600306380,Certs Test 4,2248 RUE DE PERSE,LAVAL,QC,7K1P3
600306390,Certs Test 4,48 MACEACHERN RD,UPPER GRAND MIRA,NS,1K1L7
600306400,Certs Test 4,104 RUE DE LONGUEUIL,CHATEAUGUAY,QC,6K4E8
600306410,Certs Test 4,233 RUE JOSEPH-LASSONDE,BOUCHERVILLE,QC,4B1C5
600306420,Certs Test 4,46 STATION ST,DOMINION,NS,1G1W2
600306430,Certs Test 4,270 KIPPENS RD,KIPPENS,NL,2N1B6
600306440,Certs Test 4,3064 AV HECTOR,MONTREAL,QC,1L3Y1
600306450,Certs Test 4,602 CATHEDRAL AVE,WINNIPEG,MB,2W0Y5
600306460,Certs Test 4,120 WILDLIFE PL,NANAIMO,BC,9R6H1
600306470,Certs Test 4,6827 RUE PIERRE-AUGER,MONTREAL,QC,1M2Z8
600306480,Certs Test 4,166 GLENSIDE DR,MAPLE,ON,6A2J3
600306490,Certs Test 4,4454 AV HARVARD,MONTREAL,QC,4A2X1
600306500,Certs Test 4,938 ESSA CRES,PICKERING,ON,1W2J1
600306510,Certs Test 4,20 CARMEL CRT,SHERWOOD PARK,AB,8A5A3
600306520,Certs Test 4,149 RUE DE CARIGNAN,VARENNES,QC,3X1A7
600306530,Certs Test 4,26 WILLIAM ST,ELMIRA,ON,3B1P4
600306540,Certs Test 4,1484 ALDERGROVE DR,OSHAWA,ON,1K2Y4
600306550,Certs Test 4,1648 ROUTE 124,SPRINGFIELD KINGS CO,NB,5T2J8
600306560,Certs Test 4,28 HIGHNESS CRT,WOODBRIDGE,ON,4L3S7
600306570,Certs Test 4,3 KEARNEY ST,GUELPH,ON,1E7H2
600306580,Certs Test 4,21568 TOWNSHIP ROAD 534,ARDROSSAN,AB,8E1J3
600306590,Certs Test 4,202 BURLINGTON ST,LONDON,ON,5Z3W2
600306600,Certs Test 4,9 HUDSON CRT,HAMILTON,ON,9C4A3
600306610,Certs Test 4,9712 97 AVE,FORT ST. JOHN,BC,1J1N4
600306620,Certs Test 4,7235 ROUTE 105,UPPER BRIGHTON,NB,7P2R9
600306630,Certs Test 4,2223 AV DU MONT-ROYAL E,MONTREAL,QC,2H1K5
600306640,Certs Test 4,161 COUNTRY RD,CORNER BROOK,NL,2H4M5
600306650,Certs Test 4,23 BERESFORD AVE,TORONTO,ON,6S3A9
600306660,Certs Test 4,82 TRACEY PARK DR,BELLEVILLE,ON,8P5E4
600306670,Certs Test 4,314 IONA ST,OTTAWA,ON,1Z7B9
600306680,Certs Test 4,1627 BEARD DR,MILTON,ON,9T5M9
600306690,Certs Test 4,132 RUE DU CURE-BRASSARD,NICOLET,QC,3T1C3
600306700,Certs Test 4,8 AMBER RD,CAMBRIDGE,ON,1R5K1
600306710,Certs Test 4,154 KEN TOM LANE,ALBERT BRIDGE,NS,1K3C1
600306720,Certs Test 4,1139 RUE ROY,CHICOUTIMI,QC,7J2W7
600306730,Certs Test 4,9 HICKORY ST,GUELPH,ON,1G2X2
600306740,Certs Test 4,55 DOONAREE DR,NORTH YORK,ON,3A1M5
600306750,Certs Test 4,593 BOUL SABOURIN,VAL-D'OR,QC,9P5V6
600306760,Certs Test 4,1372 ISLINGTON AVE,ETOBICOKE,ON,9A3K6
600306770,Certs Test 4,520 AMESS ST,NEW WESTMINSTER,BC,3L4A9
600306780,Certs Test 4,91 KIERSTEADVILLE RD,LONG POINT,NB,5N7Z4
600306790,Certs Test 4,6111 OAK MEADOWS DR,ORLEANS,ON,1C7G6
600306800,Certs Test 4,230 BAY BULLS RD,ST. JOHN'S,NL,1G1B2
600306810,Certs Test 4,30 HASTINGS BLVD,GUELPH,ON,1E4G4
600306820,Certs Test 4,97 STRATFORD RD,STRATFORD,PE,1B1Y5
600306830,Certs Test 4,77 D'ARCY ST,TORONTO,ON,5T1J9
600306840,Certs Test 4,113 RUE DES RONCES,SAINT-RAYMOND,QC,3L2Y2
600306850,Certs Test 4,2627 BRIDLEWOOD CRT,MISSISSAUGA,ON,5C4B9
600306860,Certs Test 4,21612 FORT RD NE,EDMONTON,AB,5Y6G8
600306870,Certs Test 4,98 ROSER CRES,BOWMANVILLE,ON,1C3N9
600306880,Certs Test 4,2156 SUNNYVALE DR,OAKVILLE,ON,6L1W7
600306890,Certs Test 4,30 ELM GROVE AVE,RICHMOND HILL,ON,4E2T1
600306900,Certs Test 4,45 ROANE AVE,GEORGETOWN,ON,7G5K5
600306910,Certs Test 4,86 SUNRISE CRES,DUNDAS,ON,9H3R9
600306920,Certs Test 4,12 LINDEN PL,MITCHELL,MB,5G2J3
600306930,Certs Test 4,5399 RUE DES PEUPLIERS,LA DORE,QC,8J1G3
600306940,Certs Test 4,303 BURNS ST E,WHITBY,ON,1N1J7
600306950,Certs Test 4,360 ALBRIGHT RD,BRAMPTON,ON,6X0H8
600306960,Certs Test 4,169 CH COCHRANE,GATINEAU,QC,9H2G9
600306970,Certs Test 4,409 PINEVIEW LANE,PICKERING,ON,1V6X4
600306980,Certs Test 4,606 MIRANDA CRT,PICKERING,ON,1V4T8
600306990,Certs Test 4,11271 AV ARTHUR-BUIES,MONTREAL-NORD,QC,1G4M4
600307005,Certs Test 4,26 ERINGATE DR,ETOBICOKE,ON,9C3Y7
600307015,Certs Test 4,2215 27 AVE SW,CALGARY,AB,2T1J1
600307025,Certs Test 4,108 RUE DES PLATEAUX,RIVIERE-DU-LOUP,QC,5R0B4
600307035,Certs Test 4,999 STONEBROOK RD,CAMBRIDGE,ON,1T1H5
600307045,Certs Test 4,706 RUE SHEARER,MONTREAL,QC,3K2J4
600307055,Certs Test 4,40 CROIS MERTON,HAMPSTEAD,QC,3X1L6
600307065,Certs Test 4,9 RAEBURN AVE,NORTH YORK,ON,3H1G6
600307075,Certs Test 4,1405 RENFREW DR NE,CALGARY,AB,2E5J3
600307085,Certs Test 4,3053 ALBERTA ST,VANCOUVER,BC,5Y3M1
600307095,Certs Test 4,5 BROOKGREENE CRES,RICHMOND HILL,ON,4C9W5
600307105,Certs Test 4,1305 25 ST SE,CALGARY,AB,2A0X3
600307115,Certs Test 4,52 WENTWORTH CRES SW,CALGARY,AB,3H0H1
600307125,Certs Test 4,67 RUE DES CHAMPS,POINTE-VERTE,NB,8J2V2
600307135,Certs Test 4,29 DONORA DR,EAST YORK,ON,4B1B6
600307145,Certs Test 4,21 RUE DE CHANTILLY,CANDIAC,QC,5R6C5
600307155,Certs Test 4,181 WINDSOR AVE,LONDON,ON,6C2A3
600307165,Certs Test 4,58 WALLACE DR,BARRIE,ON,4N7E1
600307175,Certs Test 4,7 BOLTONVIEW CRES,BOLTON,ON,7E2H1
600307185,Certs Test 4,22 JARVIS DR,PORT HOPE,ON,1A4J8
600307195,Certs Test 4,16 BENADAIR CRT,SCARBOROUGH,ON,1H1K5
600307205,Certs Test 4,47 COVEWOOD ST,NORTH YORK,ON,2M2Z2
600307215,Certs Test 4,24 MEADOWOOD CRES,SHERWOOD PARK,AB,8A0L7
600307225,Certs Test 4,258 RUE DE L'EVECHE O,RIMOUSKI,QC,5L4J1
600307235,Certs Test 4,5 JOHN ST,SALISBURY,NB,4J2H7
600307245,Certs Test 4,776 DANFORTH RD,SCARBOROUGH,ON,1K1G8
600307255,Certs Test 4,544 LOCKSTEAD RD,LOCKSTEAD,NB,9B1L9
600307265,Certs Test 4,146 PLACE DU MARQUIS,RIMOUSKI,QC,5M1C7
600307275,Certs Test 4,2338 KIRKHILL PL,OAKVILLE,ON,6M5G8
600307285,Certs Test 4,113 RUE DES TOURNESOLS,SAINT-RAYMOND,QC,3L2R8
600307295,Certs Test 4,108 RUE LARAMEE,CHATEAUGUAY,QC,6K1L4
600307305,Certs Test 4,751 28 ST SE,SALMON ARM,BC,1E2H3
600307315,Certs Test 4,363 MCKAY AVE,WINNIPEG,MB,2G0N5
600307325,Certs Test 4,1853 RUE SAINTE-FAMILLE,JONQUIERE,QC,7X4Y7
600307335,Certs Test 4,77 ROMY CRES,THOROLD,ON,2V4V2
600307345,Certs Test 4,5 CRESCENT CRT,LINDSAY,ON,9V3Y8
600307355,Certs Test 4,147 ACLAND RD,SALT SPRING ISLAND,BC,8K2N6
600307365,Certs Test 4,498 TIPPERTON CRES,OAKVILLE,ON,6L5C9
600307375,Certs Test 4,8337 ROUTE 3,MOORES MILLS,NB,5A1X9
600307385,Certs Test 4,4212 75 ST,CAMROSE,AB,4V3W5
600307395,Certs Test 4,3867 MAPLEWOOD DR,NANAIMO,BC,9T6B9
600307405,Certs Test 4,79 ALBERT LEWIS ST,MARKHAM,ON,6B0J9
600307415,Certs Test 4,5181 RUTLI MEADOWS PL,VICTORIA,BC,8Y1X7
600307425,Certs Test 4,876 8E RUE O,DEGELIS,QC,5T2A7
600307435,Certs Test 4,129 IRVING BLVD,BOUCTOUCHE,NB,4S3K2
600307445,Certs Test 4,450 ATLANTIC AVE,WINNIPEG,MB,2W0R8
600307455,Certs Test 4,113 KING ST E,BROCKVILLE,ON,6V1B7
600307465,Certs Test 4,6580 RUE CARTIER,MONTREAL,QC,2G2V7
600307475,Certs Test 4,14 RIVERSIDE DR,MIRAMICHI,NB,1N2Y4
600307485,Certs Test 4,206 CASTLEGREEN DR,THUNDER BAY,ON,7A7L8
600307495,Certs Test 4,6505 144 AVE NW,EDMONTON,AB,5A1L1
600307505,Certs Test 4,543 RED ROCK RD,SECOND FALLS,NB,5C1M8
600307515,Certs Test 4,31 RUE DES JARDINS,QUEBEC,QC,1R4L6
600307525,Certs Test 4,1978 QUEEN ELIZABETH DR,BATHURST,NB,2A4Y4
600307535,Certs Test 4,4731 FRONTENAC CRES,VAL THERESE,ON,3P1S4
600307545,Certs Test 4,17 MIDDLE COVE RD,MIDDLE COVE,NL,1K2A5
600307555,Certs Test 4,7435 BOUL NOTRE-DAME,LAVAL,QC,7X3J1
600307565,Certs Test 4,26002 102 AVE,MAPLE RIDGE,BC,2W1K1
600307575,Certs Test 4,3917 RIVERSIDE DR E,WINDSOR,ON,8Y1B1
600307585,Certs Test 4,18539 ST ANDREW'S RD,CALEDON EAST,ON,7K2E3
600307595,Certs Test 4,596 CH CHIASSON,CHIASSON OFFICE,NB,8S3G4
600307605,Certs Test 4,33 LANDSCAPES TRAIL,ANCASTER,ON,9K0A1
600307615,Certs Test 4,40 CHURCHILL TERR,NORTH PRESTON,NS,2Z1A2
600307625,Certs Test 4,78 CROYDON DR,ST CATHARINES,ON,2M1J8
600307635,Certs Test 4,1039 RUE LOUIS-RITCHIE,SAINT-JEROME,QC,5L1X6
600307645,Certs Test 4,224 MT ALLAN CIR SE,CALGARY,AB,2Z2S2
600307655,Certs Test 4,146 CH MERRILL,CHIBOUGAMAU,QC,8P1C5
600307665,Certs Test 4,7927 WEDGEWOOD ST,BURNABY,BC,5E2E7
600307675,Certs Test 4,8 BERNARD CRT,BEAUMONT,AB,4X0E7
600307685,Certs Test 4,56 MONCTON RD NE,CALGARY,AB,2E5R1
600307695,Certs Test 4,95 LENWOOD RD,NANAIMO,BC,9X1A5
600307705,Certs Test 4,34 MINES 1 SOUTH RD,HEBBS CROSS,NS,4V0Z8
600307715,Certs Test 4,182 TIMBERSTONE WAY,RED DEER,AB,4P0L6
600307725,Certs Test 4,284 RUE DE VALMONT,TERREBONNE,QC,6Y1N4
600307735,Certs Test 4,1920 PLACE DE LA BERGE,TERREBONNE,QC,7M1X5
600307745,Certs Test 4,658 RUE DU ROUSSILLON,LONGUEUIL,QC,4H3R7
600307755,Certs Test 4,5108 ROUTE 106,SACKVILLE ROAD,NB,4K3C3
600307765,Certs Test 4,5 DONNALYN DR,NORTH YORK,ON,2R2R7
600307775,Certs Test 4,13 DEANE ST,LONDON,ON,6C3L1
600307785,Certs Test 4,3067 MISSION HILL DR,MISSISSAUGA,ON,5M0B8
600307795,Certs Test 4,2056 ROUTE 102,GAGETOWN,NB,5M1L1
600307805,Certs Test 4,8 THIRD LANE,WASAGA BEACH,ON,9Z2G2
600307815,Certs Test 4,75 FLEET ST,MONCTON,NB,1C1S3
600307825,Certs Test 4,4471 RUE DE BREBEUF,MONTREAL,QC,2J3K8
600307835,Certs Test 4,71 ANDREW ST,CAMPBELLTON,NB,3N2B8
600307845,Certs Test 4,331 KENSINGTON ST,WINNIPEG,MB,3J1J6
600307855,Certs Test 4,6 AV ARNOLD,ROXBORO,QC,8Y2Z7
600307865,Certs Test 4,13 PEYTON LANE,TORONTO,ON,4M3R3
600307875,Certs Test 4,38 STEPHENSONS LANDING LANE,HARVEY YORK CO,NB,6K4A2
600307885,Certs Test 4,16 DANIEL ST,INGERSOLL,ON,5C3W9
600307895,Certs Test 4,141 OAKLAND RD,OAKLAND,NB,7L2W5
600307905,Certs Test 4,678 LAKELANDS AVE,INNISFIL,ON,9S4E6
600307915,Certs Test 4,173 RTE DU CLUB-DES-RAQUETTEURS,RIMOUSKI,QC,5N5Y1
600307925,Certs Test 4,3 ATOLL ST,NEPEAN,ON,2J3X3
600307935,Certs Test 4,501 GILL ST,ORILLIA,ON,3V4K9
600307945,Certs Test 4,10323 RUE THOMAS-PAINE,MONTREAL,QC,1C0B6
600307955,Certs Test 4,26 FRASER RD,LEAMINGTON,ON,8H4E5
600307965,Certs Test 4,20 RUE DU SAUVIGNON,KIRKLAND,QC,9H5A5
600307975,Certs Test 4,177 WOOLWICH ST,GUELPH,ON,1H3V4
600307985,Certs Test 4,54 CH CHARTERSVILLE,DIEPPE,NB,1A1K1
600307995,Certs Test 4,973 BOUL SAINT-JOSEPH,ROBERVAL,QC,8H2M1
600308010,Certs Test 4,4 PEARSON PL,ST. ALBERT,AB,8N4T1
600308020,Certs Test 4,15 EASTVALE PL,HAMILTON,ON,8H1N9
600308030,Certs Test 4,98 MARSDALE DR,ST CATHARINES,ON,2T3S9
600308040,Certs Test 4,27 RUE LESSARD,QUEBEC,QC,2B2V5
600308050,Certs Test 4,47 WAKELY BLVD,BOLTON,ON,7E2H1
600308060,Certs Test 4,145 AUBURN BAY HTS SE,CALGARY,AB,3M0A7
600308070,Certs Test 4,554 PALMERSTON AVE,TORONTO,ON,6G2P7
600308080,Certs Test 4,172 ABETTI RIDGE,NEPEAN,ON,2J0Y9
600308090,Certs Test 4,28 BANKVIEW CIR,ETOBICOKE,ON,9W6S6
600308100,Certs Test 4,25 SILVERLACE CIR,STONEY CREEK,ON,8E6A5
600308110,Certs Test 4,662 COOPER ST,CAMPBELL RIVER,BC,9H1S8
600308120,Certs Test 4,8 ROGERS RD,HUNTSVILLE,ON,1H1T1
600308130,Certs Test 4,4553 RUE SAINTE-CATHERINE E,MONTREAL,QC,1V1Y8
600308140,Certs Test 4,126 RUE AUGER,CHATEAUGUAY,QC,6K5E7
600308150,Certs Test 4,1258 CALEDONIA RD,NORTH YORK,ON,6A2X5
600308160,Certs Test 4,32 MACIVER ST,FORT MCMURRAY,AB,9H1Z8
600308170,Certs Test 4,1984 THOMPSON ST,INNISFIL,ON,9S4Z5
600308180,Certs Test 4,88 FORTY SECOND ST,UNIONVILLE,ON,3P7K4
600308190,Certs Test 4,1674 RUE GILFORD,MONTREAL,QC,2J1S5
600308200,Certs Test 4,71 PLEASANT ST,DARTMOUTH,NS,2Y3P4
600308210,Certs Test 4,12 KIRKWOOD CRT,BEDFORD,NS,4A0A8
600308220,Certs Test 4,159 RUE LAVALTRIE N,JOLIETTE,QC,6E5W3
600308230,Certs Test 4,122 BOUL SUTTERLIN,CHATEAUGUAY,QC,6K4Z9
600308240,Certs Test 4,9 RUE PILON,BLAINVILLE,QC,7C2B8
600308250,Certs Test 4,204 AVENUE F N,SASKATOON,SK,7L1W1
600308260,Certs Test 4,477 BOUL LAROCHELLE,REPENTIGNY,QC,6A5W4
600308270,Certs Test 4,23 BLOOMINGTON CRES,NORTH YORK,ON,3N1R2
600308280,Certs Test 4,214 SOUTH LEAKSDALE CIR,LONDON,ON,6M1K2
600308290,Certs Test 4,154 AV BRAEBROOK,POINTE-CLAIRE,QC,9R1T9
600308300,Certs Test 4,452 RUE DES ERABLES,TROIS-RIVIERES,QC,8T5H9
600308310,Certs Test 4,31 DOUGLAS RIDGE CLOSE SE,CALGARY,AB,2Z2M4
600308320,Certs Test 4,662 14E RUE,QUEBEC,QC,1J2K7
600308330,Certs Test 4,381 EAST 24TH ST,HAMILTON,ON,8V4W8
600308340,Certs Test 4,1565 RUE BEDARD,LAVAL,QC,7M2L8
600308350,Certs Test 4,251 CONESTOGA DR,BRAMPTON,ON,6Z3M1
600308360,Certs Test 4,1616 21 AVE NW,CALGARY,AB,2M1M1
600308370,Certs Test 4,28 AV DES TERRASSES,LAVAL,QC,7L2C5
600308380,Certs Test 4,339 RUE JEAN-PERRIN,GATINEAU,QC,8V2R6
600308390,Certs Test 4,1465 RUE LINDSAY,MONT-JOLI,QC,5H2Z5
600308400,Certs Test 4,347 BARTON DR,TABER,AB,1G2G7
600308410,Certs Test 4,182 LISGAR ST,STURGEON FALLS,ON,2B3H9
600308420,Certs Test 4,3967 BOUL LASALLE,VERDUN,QC,4G2A1
600308430,Certs Test 4,2344 ROUTE 885,HAVELOCK,NB,4Z5N8
600308440,Certs Test 4,1255 BRILLINGER ST,OAKVILLE,ON,6M3T2
600308450,Certs Test 4,4 BAYVIEW RIDGE,NORTH YORK,ON,2L1E2
600308460,Certs Test 4,4519 212 ST NW,EDMONTON,AB,6M0G3
600308470,Certs Test 4,27 ALEXANDRA CRES,ST ANDREWS,NB,5B2J1
600308480,Certs Test 4,353 CH PARE,VAL-D'OR,QC,9P0C2
600308490,Certs Test 4,4086 AV MARCIL,MONTREAL,QC,4A2Z6
600308500,Certs Test 4,169 OAKMEADOW BLVD,SCARBOROUGH,ON,1E4H5
600308510,Certs Test 4,339 RUE COUSINEAU,LAVAL,QC,7G3K2
600308520,Certs Test 4,908 RUE DE LA GRANDE-COULEE,SHERBROOKE,QC,1N4B1
600308530,Certs Test 4,6 ORCHID PL,MORDEN,MB,6M1J6
600308540,Certs Test 4,6070 LOCH LOMOND RD,THUNDER BAY,ON,7J1E6
600308550,Certs Test 4,2020 HAWKRIDGE DR,THUNDER BAY,ON,7J1H2
600308560,Certs Test 4,13 DRAKE LANDING LOOP,OKOTOKS,AB,1S0G9
600308570,Certs Test 4,2046 GERRARD ST E,TORONTO,ON,4E2B1
600308580,Certs Test 4,87 SHERWOOD AVE,SCARBOROUGH,ON,1R1N7
600308590,Certs Test 4,3023 MEADOWGATE BLVD,LONDON,ON,6M1L1
600308600,Certs Test 4,52 RUE GEORGES-VANIER,ROXBORO,QC,8Y2S3
600308610,Certs Test 4,884 RUE THIBAUDEAU,L'ILE-BIZARD,QC,9C2V3
600308620,Certs Test 4,12728 91 ST NW,EDMONTON,AB,5E3P3
600308630,Certs Test 4,222 BOUL PIERRE-BERTRAND,QUEBEC,QC,1M2C4
600308640,Certs Test 4,539 RUE ANNA,QUEBEC,QC,1N3L7
600308650,Certs Test 4,19 GREGSON ST,AJAX,ON,1T3Z9
600308660,Certs Test 4,160 RUE BERGERON,MATANE,QC,4W2G5
600308670,Certs Test 4,4548 SOUTHRIDGE CRES,LANGLEY,BC,3A4N8
600308680,Certs Test 4,6 SATURN RD,PORT COLBORNE,ON,3K6B2
600308690,Certs Test 4,136 GRANDES TERRASSES,SAINT-JEAN-SUR-RICHELIEU,QC,2Y1C3
600308700,Certs Test 4,38 GOSWELL RD,ETOBICOKE,ON,9B1W9
600308710,Certs Test 4,82 BARTON ST W,HAMILTON,ON,8L1A5
600308720,Certs Test 4,1646 AV DU LAC-SAINT-CHARLES,QUEBEC,QC,3G2X2
600308730,Certs Test 4,114 CH DERRY,QUEBEC,QC,1B0A6
600308740,Certs Test 4,10 CAVANAGH CRT,SAINT JOHN,NB,2K5L2
600308750,Certs Test 4,171 RUE BLANCHET,AMQUI,QC,5J2S1
600308760,Certs Test 4,12 RUBIC CRES,SCARBOROUGH,ON,1S4X7
600308770,Certs Test 4,419 MORTON ST,THOROLD,ON,2V4S5
600308780,Certs Test 4,20 KING ST,ST CATHARINES,ON,2R3H3
600308790,Certs Test 4,8 FLOCKHART RD,CAMBRIDGE,ON,1P1E7
600308800,Certs Test 4,3165 MISSION HILL DR,MISSISSAUGA,ON,5M0B2
600308810,Certs Test 4,24 RAMSGATE CRT,BRAMPTON,ON,6Z1W4
600308820,Certs Test 4,924 KNOLLWOOD CRT,MISSISSAUGA,ON,5C3L9
600308830,Certs Test 4,2062 KING RD,KING CITY,ON,7B1K9
600308840,Certs Test 4,5 RIVERA ST,MONCTON,NB,1H3J4
600308850,Certs Test 4,4832 49 AVE,VEGREVILLE,AB,9C1L2
600308860,Certs Test 4,19 DISAN CRT,ETOBICOKE,ON,9V4A5
600308870,Certs Test 4,40 LINDEN LANE,STOUFFVILLE,ON,4A5R9
600308880,Certs Test 4,50 SILVERADO SKIES WAY SW,CALGARY,AB,2X0K2
600308890,Certs Test 4,8207 RUE SAINT-DOMINIQUE,MONTREAL,QC,2P2L2
600308900,Certs Test 4,24 2E AV,PONT-ROUGE,QC,3H3E8
600308910,Certs Test 4,10237 AV PELOQUIN,MONTREAL,QC,2C2J9
600308920,Certs Test 4,194 SOUTH BLACK RIVER RD,BLACK RIVER BRIDGE,NB,1N5S9
600308930,Certs Test 4,8192 BOUL LACORDAIRE,SAINT-LEONARD,QC,1R2A2
600308940,Certs Test 4,1776 REGENT ST,SUDBURY,ON,3E3Z8
600308950,Certs Test 4,30 LADY FERNWAY,NORTH YORK,ON,2J4M5
600308960,Certs Test 4,768 37 ST SE,SALMON ARM,BC,1E3M2
600308970,Certs Test 4,285 RUE VIVIAN,GREENFIELD PARK,QC,4V2T2
600308980,Certs Test 4,65 RUE SAINT-JEAN-BAPTISTE S,PRINCEVILLE,QC,6L5A3
600308990,Certs Test 4,124 KING ST,ST ANDREWS,NB,5B1Y6
600309005,Certs Test 4,BOX #4507 STN A,TORONTO,ON,5W4J9
600309015,Certs Test 4,BOX #4646 STN A,TORONTO,ON,5W5E6
600309025,Certs Test 4,BOX #2580 STN M,CALGARY,AB,2P2W9
600309035,Certs Test 4,BOX #429 STN MAIN,WINNIPEG,MB,3C3E4
600309045,Certs Test 4,BOX #5000 STN MAIN,GEORGETOWN,ON,7G6J4
600309055,Certs Test 4,BOX #11046 SUCC CENTRE VILLE,MONTREAL,QC,3C4Y2
600309065,Certs Test 4,BOX #339 STN M,CALGARY,AB,2P5M7
600309075,Certs Test 4,BOX #11057 SUCC CENTRE VILLE,MONTREAL,QC,3C4Z4
600309085,Certs Test 4,BOX #1006 STN MAIN,DARTMOUTH,NS,2Y4A2
600309095,Certs Test 4,BOX #8500 STN MAIN,PETERBOROUGH,ON,9J0B4
601817005,Certs Test 4,3606 0 CRES,MISSISSAUGA,ON,5L1K4
601817015,Certs Test 4,71 1 DR,HAMILTON,ON,8E4B5
601817025,Certs Test 4,86 1 AVE,HAMILTON,ON,8H4L9
601817035,Certs Test 4,47 1 AVE,YORK,ON,6N2S3
601817045,Certs Test 4,103 1 AVE,TORONTO,ON,6H1Y3
601817055,Certs Test 4,92 1 RD,THORNHILL,ON,3T5J8
601817065,Certs Test 4,1647 1 DR,LONDON,ON,6N1L1
601817075,Certs Test 4,2029 1 AVE,OTTAWA,ON,1H5M1
601817085,Certs Test 4,756 1 AVE,WINNIPEG,MB,2W2S9
601817095,Certs Test 4,853 1 RD,CHELSEA,NS,4V7L5
601818005,Certs Test 4,1320 1 RUE,GATINEAU,QC,8R2Z1
601818015,Certs Test 4,8 1 ST,LONDON,ON,6H1P3
601818025,Certs Test 4,39 1 LANE,NORTH YORK,ON,2R3Y7
601818035,Certs Test 4,65 1 CRES,THORNHILL,ON,4J3J8
601818045,Certs Test 4,7 1 CRT,HAMILTON,ON,8H3E9
601818055,Certs Test 4,157 1 AVE,TORONTO,ON,4R2A5
601818065,Certs Test 4,38 1 RUE,BLAINVILLE,QC,7C5R6
601818075,Certs Test 4,111 1 CRES,OSHAWA,ON,1G3Z8
601818085,Certs Test 4,11 1 ST,BARRIE,ON,4M3K7
601818095,Certs Test 4,2292 1 RUE,LONGUEUIL,QC,4G1G1
601819005,Certs Test 4,14 RUE BOURGEOTIS,GRANBY,QC,2G4A9
601819015,Certs Test 4,10586 AV ARMANDL-LAVHERGNE,MONTREAL-NORD,QC,1H3P1
601819025,Certs Test 4,11 LIARCH GROVE PL,CONCEPTION BAY SOUTH,NL,1X6J9
601819035,Certs Test 4,390 AV DES TTRAPPEURS,GATINEAU,QC,9J2H9
601819045,Certs Test 4,1879 DUMQONT ST,LONDON,ON,5W2S3
601819055,Certs Test 4,685 RIVEFR VALLEY DR,GRAND BAY-WESTFIELD,NB,5K1B5
601819065,Certs Test 4,28 MONTEE DEN SANDY BEACH,GASPE,QC,4X2A8
601819075,Certs Test 4,9 PINEVIEMW RD,BROCKVILLE,ON,6V6K3
601819085,Certs Test 4,11 RUE HAANSON,GATINEAU,QC,8Y3M2
601819095,Certs Test 4,57 NOIRMANDALE RD,UNIONVILLE,ON,3R4J8
601820005,Certs Test 4,6918 134FY ST,SURREY,BC,3W4S9
601820015,Certs Test 4,4 6OE AV,L'ILE-PERROT,QC,7V4T9
601820025,Certs Test 4,5234 5HA7 ST,BEAUMONT,AB,4X1B3
601820035,Certs Test 4,3414 61VC ST,BEAUMONT,AB,4X1T5
601820045,Certs Test 4,6407 4G4B AVE,CAMROSE,AB,4V0B7
601820055,Certs Test 4,418 5KE AV,DEUX-MONTAGNES,QC,7R3E8
601820065,Certs Test 4,8121 11THN AVE,BURNABY,BC,3N2P1
601820075,Certs Test 4,747 9EU AV,LACHINE,QC,8S3C5
601820085,Certs Test 4,153 1C38Q RTE,LA MALBAIE,QC,5A2C4
601820095,Certs Test 4,6204 4F2E AV,MONTREAL,QC,1T2S8
601821005,Certs Test 4,111 SPROINGFIELD ABBEY NW,EDMONTON,AB,5T0A3
601821015,Certs Test 4,103 ECCCLES MANOR N,BARRIE,ON,4N1Y6
601821025,Certs Test 4,39 JCAMES MANOR E,BROCKVILLE,ON,6V1K3
601821035,Certs Test 4,295 THAMESY MANOR N,INGERSOLL,ON,5C3E3
601821045,Certs Test 4,15433 ALLEE GLOUIN O,SAINTE-GENEVIEVE,QC,9H1B9
601821055,Certs Test 4,324 ALLEE PUOINT-DU-JOUR N,LAVALTRIE,QC,5T3P8
601821065,Certs Test 4,647 ALLEE SAINT-LAURTENT O,LONGUEUIL,QC,4H1N9
601821075,Certs Test 4,427 EXPLORATUION ABBEY SE,CALGARY,AB,3S0B4
601821085,Certs Test 4,2750 ALLEE GALUT O,SHERBROOKE,QC,1K2V8
601821095,Certs Test 4,88 WOODCLAWN ABBEY W,TORONTO,ON,4V1G7
601822005,Certs Test 4,1824 ALLEE DTE LA ROUSSELIERCE,POINTE-AUX-TREMBLES,QC,1A2X5
601822015,Certs Test 4,3661 ALLEE RACINME,JONQUIERE,QC,7X1E5
601822025,Certs Test 4,41 WALTEPR MANOR,NEWMARKET,ON,3Y2T2
601822035,Certs Test 4,3194 ALLEE PRINCCE-CHARLES,SAINT-HUBERT,QC,3Y4X4
601822045,Certs Test 4,64 ALLEE DONEGVANI,POINTE-CLAIRE,QC,9R2V4
601822055,Certs Test 4,19 GREELNBUSH MANOR,BRAMPTON,ON,6S2K2
601822065,Certs Test 4,434 ALLEE TESKSIER,LA TUQUE,QC,9X3E6
601822075,Certs Test 4,1240 ALLEE DES LAUREGNTIDES,GATINEAU,QC,8M1T5
601822085,Certs Test 4,6 DUHNCAN ABBEY,CAMPBELLTON,NB,3N2K4
601822095,Certs Test 4,67 ALLEE FIFTHX,POINTE-CLAIRE,QC,9S5C9
601823005,Certs Test 4,5183 PAPINEAUV AVN,MONTREAL,QC,2H1W1
601823015,Certs Test 4,394 SWANSOSN CR,BURLINGTON,ON,7R4G6
601823025,Certs Test 4,48 GIIBSON STR,PARRY SOUND,ON,2A1W9
601823035,Certs Test 4,135 CHAOTHAM STR,KINGSTON,ON,7K4H5
601823045,Certs Test 4,1477 RANKEIN WY,INNISFIL,ON,9S0C6
601823055,Certs Test 4,97 BECKWINTH CR,MARKHAM,ON,3S1R3
601823065,Certs Test 4,98 CASFTLERBIDGE DRV,RICHMOND HILL,ON,4B1R7
601823075,Certs Test 4,3759 LOTTBINIERE CHEM,SAINT-LAZARE,QC,7T2N6
601823085,Certs Test 4,1093 GLYADSTONE AVNUE,OTTAWA,ON,1Y3H1
601823095,Certs Test 4,2024 CREIGHUTON STR,HALIFAX,NS,3K3R2
601824005,Certs Test 4,374 L'ASSOMPTIGON BPULEVARD O,SAINT-CHARLES-BORROMEE,QC,6E0C5
601824015,Certs Test 4,423 RYUNDLESON OLACE NE,CALGARY,AB,1Y3H6
601824025,Certs Test 4,367 ARCHIBALDM ETREET N,THUNDER BAY,ON,7C3Y8
601824035,Certs Test 4,64 ELYZSIAN CRESCEN SW,CALGARY,AB,3H0E7
601824045,Certs Test 4,212 JOHNK SREET N,HAMILTON,ON,8L4P5
601824055,Certs Test 4,125 WEBYER CLOLOSE NW,EDMONTON,AB,6M0L4
601824065,Certs Test 4,1357 HXARWOOD AVNUE N,AJAX,ON,1T4G8
601824075,Certs Test 4,91 SAIPNT-CHARLES STREETT O,LONGUEUIL,QC,4H1C5
601824085,Certs Test 4,571 WATSONC ROGAD S,GUELPH,ON,1L1C5
601824095,Certs Test 4,16 DOUGLAS PFAXRK LOSE SE,CALGARY,AB,2Z2A8
601825005,Certs Test 4,128 BULLMOOSE HILL MANOR,BELLEISLE CREEK,NB,5P1L2
601825015,Certs Test 4,5380 ALLEE PAUL-PAU,MONTREAL,QC,1K2N1
601825025,Certs Test 4,56 CURTIS MANOR,SCARBOROUGH,ON,1B2B8
601825035,Certs Test 4,1123 ALLEE CASCADE,SHAWINIGAN,QC,9N1C1
601825045,Certs Test 4,3371 ALLEE LASALLE,VERDUN,QC,4G1Z2
601825055,Certs Test 4,1405 REEF MANOR,NANOOSE BAY,BC,9P9B9
601825065,Certs Test 4,974 ALLEE MURIELLE,SALABERRY-DE-VALLEYFIELD,QC,6S0E3
601825075,Certs Test 4,526 HARVEST VALLEY MANOR,ORLEANS,ON,4A0R2
601825085,Certs Test 4,5208 ALLEE EARNSCLIFFE,MONTREAL,QC,3X2P5
601825095,Certs Test 4,1013 13 MANOR,COLD LAKE,AB,9M1J9
601826005,Certs Test 4,5 BRUNETTE PLACUE,FORT SASKATCHEWAN,AB,8L0J7
601826015,Certs Test 4,462 BLOOMFIELD VENUE,OUTREMONT,QC,2V3R8
601826025,Certs Test 4,45 JUCHEREAU RUEUE,STE-CATHERINE-DE-LA-J-CARTIER,QC,3N0Z5
601826035,Certs Test 4,4934 DES ARDENNES URE,MONTREAL-NORD,QC,1G2H2
601826045,Certs Test 4,173 NOTRE-DAME RUEM,SAINT-JEAN-SUR-RICHELIEU,QC,3B6N1
601826055,Certs Test 4,90 PERRIER TUE,NOTRE-DAME-DE-L'ILE-PERROT,QC,7V8X3
601826065,Certs Test 4,4755 DES CHENES UE,SAINTE-CATHERINE,QC,5C1L1
601826075,Certs Test 4,322 REDFERN AAVENUE,WESTMOUNT,QC,3Z2G5
601826085,Certs Test 4,10120 SAINT-LAURENT BOULEAVRD,MONTREAL,QC,3L2N7
601826095,Certs Test 4,1252 BERTHELOT REU,SAINT-JEAN-SUR-RICHELIEU,QC,2W1X9
601827005,Certs Test 4,2321 FALKLAND,OAKVILLE,ON,6M4X9
601827015,Certs Test 4,968 DU MASSIF,QUEBEC,QC,2K2L6
601827025,Certs Test 4,96 BONIN,BEAUMONT,AB,4X1N7
601827035,Certs Test 4,3138 ST-GERMAIN,BOISBRIAND,QC,7H0B1
601827045,Certs Test 4,390 OAKWOOD,YORK,ON,6E2W3
601827055,Certs Test 4,66 THELMA,NORTH BAY,ON,1A4K1
601827065,Certs Test 4,5 QUEENS,GRIMSBY,ON,3M1C2
601827075,Certs Test 4,1342 WILTSHIRE,SARNIA,ON,7S5R3
601827085,Certs Test 4,28 SPRINGWOOD,STITTSVILLE,ON,2S1E2
601827095,Certs Test 4,134 POMPIDOU,LA PRAIRIE,QC,5R5Y6
601828005,Certs Test 4,50 TAYLOR,AIRDRIE,AB,4A1S3
601828015,Certs Test 4,71 CHAPARRAL,CALGARY,AB,2X3N4
601828025,Certs Test 4,1707 BOWNESS,EDMONTON,AB,6W1J3
601828035,Certs Test 4,8057 JEANNE D'ARC,ORLEANS,ON,1E1W7
601828045,Certs Test 4,87 GARSIDE,HAMILTON,ON,8H4W4
601828055,Certs Test 4,25 8E,LA SARRE,QC,9Z1N2
601828065,Certs Test 4,15521 118,EDMONTON,AB,5V1C5
601871015,Certs Test 4,PO BOX 4710 INDUSTRIAL PARK,MARKHAM,ON,3R6G9
601871025,Certs Test 4,PO BOX 25025 MOUNTAIN ROAD,MONCTON,NB,1C9M9
601871035,Certs Test 4,PO BOX 85 A,PRINCE GEORGE,BC,2L4R9
601871045,Certs Test 4,PO BOX 557 DON MILLS,NORTH YORK,ON,3C2T6
601871055,Certs Test 4,PO BOX 4547 A,TORONTO,ON,5W1V9
601871065,Certs Test 4,PO BOX 1961 MAIN,PRINCE ALBERT,SK,6V6K1
601871075,Certs Test 4,PO BOX 80105 BRM B,TORONTO,ON,7Y9T4
601871085,Certs Test 4,CP 138 H,MONTREAL,QC,3G2K7
601871095,Certs Test 4,PO BOX 134 B,SUDBURY,ON,3E4N5
601872005,Certs Test 4,PO BOX 11024,NEPEAN,ON,2H7T8
601872015,Certs Test 4,PO BOX 44101,EDMONTON,AB,5V1N6
601872025,Certs Test 4,PO BOX 22050,PRINCE GEORGE,BC,2N4Z8
601872035,Certs Test 4,CP 94,VAL-D'OR,QC,9P4N9
601872045,Certs Test 4,PO BOX 48065,MISSISSAUGA,ON,5A4G8
601872055,Certs Test 4,CP 606,MONTREAL,QC,4V2Z2
601872065,Certs Test 4,CP 22028,TROIS-RIVIERES,QC,9A6N6
601872075,Certs Test 4,PO BOX 64817,COQUITLAM,BC,3B0H1
601872085,Certs Test 4,PO BOX 1573,MISSISSAUGA,ON,4T4C2
601872095,Certs Test 4,PO BOX 83087,BRAMPTON,ON,6T5N3
601873005,Certs Test 4,RR 4 C-6 L-90,DRUMMONDVILLE,QC,2B6V4
601873015,Certs Test 4,RR 4 S-1 B 36,CAMBRIDGE,ON,1R5S5
601873025,Certs Test 4,SS 6 SITE 8 BX 25,WINNIPEG,MB,2C2Z3
601873035,Certs Test 4,SS 10 BOITE 4,BELLEVILLE,ON,8N4Z3
601873045,Certs Test 4,RR 1 R-6 BX 3,DRUMMONDVILLE,QC,2B6V2
601873055,Certs Test 4,RR 3 GROUP 13,REGINA,SK,4P2Z3
601873065,Certs Test 4,RR 66 S-2 C-8,OTTAWA,ON,1T3Z4
601873075,Certs Test 4,RR 5 BOITE 4,WINNIPEG,MB,2C2Z2
601873085,Certs Test 4,RR 3 S-1 B-36,BARRIE,ON,4M4S5
601873095,Certs Test 4,RR 16 L 5 C 6,LONDON,ON,5V5C6
601874005,Certs Test 4,PO BOX 487 TTASION PORT CREDIT,MISSISSAUGA,ON,5G4M2
601874015,Certs Test 4,PO BOX 27020 PMOSTAL OUTLET 6,LANGLEY,BC,3A9L2
601874025,Certs Test 4,PO BOX 2174 STATKON TERMINAL,VANCOUVER,BC,6B3V3
601874035,Certs Test 4,PO BOX 253 STATIRON B,SUDBURY,ON,3E4N5
601874045,Certs Test 4,PO BOX 29003 POSTAL O OUTLET PRESTON NORTH,SASKATOON,SK,7N4Y2
601874055,Certs Test 4,CP 522 TSATION BUREAU-CHEF,SAINT-JEAN-SUR-RICHELIEU,QC,3B6Z8
601874065,Certs Test 4,PO BOX 27084 POSTAL OETLUT LANGFORD,VICTORIA,BC,9B5S4
601874075,Certs Test 4,PO BOX 2307 STATATION B,LONDON,ON,6A4E3
601874085,Certs Test 4,PO BOX 3324 STATIOH AGINCOURT,SCARBOROUGH,ON,1S3C6
601874095,Certs Test 4,PO BOX 9207 STATIOB DON MILLS,NORTH YORK,ON,3C2T9
601875005,Certs Test 4,PO BOX 23585 COMTOIR POTAL CENTENNIAL,BRAMPTON,ON,6V4J4
601875015,Certs Test 4,PO BOX 1111 SUUCCURSALE MAIN,CORNWALL,ON,6H5V2
601875025,Certs Test 4,PO BOX 9492 SUCCURSSLE TERMINAL,VANCOUVER,BC,6B4G3
601875035,Certs Test 4,PO BOX 707 SUCEURSALC B,SUDBURY,ON,3E4R6
601875045,Certs Test 4,PO BOX 2501 SUCCUREALS MAIN,NEW WESTMINSTER,BC,3L5A8
601875055,Certs Test 4,PO BOX 26566 COMPTOWIR POSTAL MARKVILLE,MARKHAM,ON,3R0M4
601875065,Certs Test 4,PO BOX 79012 COMPTPTOIR POSTAL MOUNT ROYAL U,CALGARY,AB,3E7N5
601875075,Certs Test 4,PO BOX 296 SUCCUCURSALE A,MISSISSAUGA,ON,5A3A1
601875085,Certs Test 4,CP 25010 COMPTOIRXPOSTAL GALERIES GP,RIMOUSKI,QC,5L0B2
601875095,Certs Test 4,PO BOX 175 SUUCCRSALE M,CALGARY,AB,2P2H6
601876005,Certs Test 4,PO BOX 20002 SGTATION BRM B B,TORONTO,ON,7Y3R2
601876015,Certs Test 4,PR STATIOM BUREAUCCHEF,SAINT-JEROME,QC,7Z5T6
601876025,Certs Test 4,PO BOX 37009 POSTQL LUTLET NIRTH PARK,SASKATOON,SK,7K8J2
601876035,Certs Test 4,PO BOX 11000 STATIONN MAYIN,SURREY,BC,3T0B3
601876045,Certs Test 4,PO BOX 9960 STATIPON TLRMINAE,VANCOUVER,BC,6B4G3
601876055,Certs Test 4,CP 50087 POSTQL OUTLET DAGENASI,LAVAL,QC,7M0A1
601876065,Certs Test 4,PO BOX 311 ATSTION LAMBTH,LONDON,ON,6P1P9
601876075,Certs Test 4,PO BOX 8296 SATATION DON MILS,NORTH YORK,ON,3C2T9
601876085,Certs Test 4,PO BOX 4158 STAYION AE,TORONTO,ON,5W1T2
601876095,Certs Test 4,PO BOX 46675 STATIGON BBRM B,TORONTO,ON,7Y8A1
601877005,Certs Test 4,CP 2064 SUCC,MONTREAL,QC,3B4H4
601877015,Certs Test 4,PO BOX 2064 STN,REGINA,SK,4P3E1
601877025,Certs Test 4,PO BOX 72168 RPO,TORONTO,ON,9M3A6
601877035,Certs Test 4,PO BOX 1242 STN,COMOX,BC,9M7Z8
601877045,Certs Test 4,CP 314 SUCC,MONTREAL,QC,4Z1G8
601877055,Certs Test 4,PO BOX 1733 STN,SASKATOON,SK,7K3S1
601877065,Certs Test 4,CP 96546 CSP,MONTREAL,QC,4E4P3
601877075,Certs Test 4,PO BOX 537 STN,PRINCE ALBERT,SK,6V5R8
601877085,Certs Test 4,PO BOX 30096 RPO,HAMILTON,ON,9B2Y5
601877095,Certs Test 4,PO BOX 49018 STN,VANCOUVER,BC,7X1A9
601878005,Certs Test 4,CP 782 SUCC PDFDF,LACHINE,QC,8S4A9
601878015,Certs Test 4,CP 9508 SUCC SAINTE-FKOY,QUEBEC,QC,1V4B8
601878025,Certs Test 4,PO BOX 5309 LCD EERIVALM,NEPEAN,ON,2C3J1
601878035,Certs Test 4,PO BOX 4557 STN INDYSTRIAL PARJ,MARKHAM,ON,3R6G9
601878045,Certs Test 4,PO BOX 5040 STN LCD 1 1,BURLINGTON,ON,7R3Y8
601878055,Certs Test 4,PO BOX 456 STN DCL 1,HAMILTON,ON,8L7W9
601878065,Certs Test 4,PO BOX 1717 STN MAI,SASKATOON,SK,7K3S1
601878075,Certs Test 4,PO BOX 340 STN TPRONTOCDOM,TORONTO,ON,5K1K7
601878085,Certs Test 4,PO BOX 1662 STN MAIH,MONCTON,NB,1C9X5
601878095,Certs Test 4,PO BOX 12091 RPO MURRAVLLE,LANGLEY,BC,3A9J5
601879005,Certs Test 4,55 WESTBOURNE AVE,TORONTO,ONTARIK,1L2Y3
601879015,Certs Test 4,598 RUE DES CHRYSANTHEMES,ST-EUSTACHE,QUELBEC,7P5R2
601879025,Certs Test 4,10 FELDBAR CRT,WILLOWDALE,ONTARIOS,2N4P8
601879035,Certs Test 4,497 SUTHERLAND DR,TORONTO,ONTAERIO,4G1K9
601879045,Certs Test 4,10605 126 AVE,GRAND-PRAIRIE,ALHERTA,8V2L8
601879055,Certs Test 4,218 GOLDHAWK TRAIL,TORONTO,ONTARIIO,1V1X5
601879065,Certs Test 4,307 DUNCANS COVE RD,PORTUGESE COVE,NBBOVA SCOTIA,3V1K4
601879075,Certs Test 4,134 EASTWOOD ST,LONGS CREEK,NEW BRUNSWTICK,3B6P5
601879085,Certs Test 4,12 CLEARLAKE AVE,TORONTO,ONTPARIO,1C4L7
601879095,Certs Test 4,22176 124 AVE,HANEY,BRITISH COLYUMBIAK,2X4J3
601880005,Certs Test 4,117 RUE SAINT-JEAN-BAPTISTE,RIVIERE-DU-GOUFFRE,QC,3Z1M9
601880015,Certs Test 4,698 SCOTTSDALE DR,ERAMOSA,ON,1G4M5
601880025,Certs Test 4,5 WISTERIA CRT,FREEPORT,ON,2E3T4
601880035,Certs Test 4,844 CARRIE ST,EAST SOOKE,BC,9A5R4
601880045,Certs Test 4,7 RUE WILLIAM-DAVIS,EAST TEMPLETON,QC,9J2Z5
601880055,Certs Test 4,103 FARNHAM AVE,PARKDALE,ON,4V1H6
601880065,Certs Test 4,44 RUTLEDGE CRES,EMILY HARBOUR,NL,1A3J6
601880075,Certs Test 4,517 RUE DES ECARTS,POINTE-AU-PERE,QC,5L7W6
601880085,Certs Test 4,5727 9E AV,NOTRE-DAME-DE-GRACE,QC,1Y2K1
601880095,Certs Test 4,909 DUDLEY AVE,ST JAMES,MB,3M1R2
601881005,Certs Test 4,PO BOX 2397 STN M,CALGLARY,,2P3C1
601881015,Certs Test 4,PO BOX 1856 STN C,KITCBENER,,2G4R3
601881025,Certs Test 4,PO BOX 762 STN FORT LANGLEY,LWNGLEY,,1M2S2
601881035,Certs Test 4,PO BOX 19 STN CALEDON EAST,CALDDON EAST,,7C3L8
601881045,Certs Test 4,CP 92074 CSP PORTOBELLO,GROSSARD,,4W3K8
601881055,Certs Test 4,PO BOX 9295 STN PROV GOVT,VICTORIZA,,8W9J8
601881065,Certs Test 4,PO BOX 1188 STN A,PRZINCE GEORGEL,,2L4V2
601881075,Certs Test 4,PO BOX 180 STN A,PRSINCE GZEORGE,,2L4S1
601881085,Certs Test 4,PO BOX 75075 RPO FIRST PLACE,HAMILTPN,,8N4G6
601881095,Certs Test 4,CP 8581 SUCC BUREAU-CHEF,SAINT-HYZACINTHE,,2S7C3
601882005,Certs Test 4,3540 BOUL SAINTE-ROSE,LAVAML,,7P4K6
601882015,Certs Test 4,63 PILLAR ROCK CRES,MQRKHAM,,6C3H4
601882025,Certs Test 4,17 JESSOP DR,BDAMPTON,,7A3M7
601882035,Certs Test 4,3804 51 AVE,COLD TLAKE,,9M2B2
601882045,Certs Test 4,3 PRITCHARD CLOSE,SYLVQAN LAKE,,4S1W3
601882055,Certs Test 4,782 RUE CRAIG,SAIMT-MICOLAS,,7A2N2
601882065,Certs Test 4,201 SCHUBERT HILL NW,CALGADY,,3L1X4
601882075,Certs Test 4,58 HILLVIEW DR,NRWMARKET,,3Y4H9
601882085,Certs Test 4,42 RUE CHAMPIGNY,SHERBROOKW,,1M0A4
601882095,Certs Test 4,10 RUE SAINT-JOSEPH,SALABERRY-DE-VEALLEYFIELD,,6T1J9
601883005,Certs Test 4,19 124E AVENUE,,QC,8A2G8
600295859,Certs Test 4,6256 CH DU LAC-CLAIR NORD RR 2,RAWDON,QC,0K1S0
600295869,Certs Test 4,29 STONEGLEN WAY RR 3,MOUNT HOPE,ON,0R1W0
600295879,Certs Test 4,752 BALSER DR RR 1,KINGSTON,NS,0P1R0
600295889,Certs Test 4,1048 RUE LOISEAU RR 15,POINTE-CALUMET,QC,0N1G5
600295899,Certs Test 4,387 132 RTE GD,SAINT-SIMON-DE-RIMOUSKI,QC,0L4C0
600295909,Certs Test 4,1 HORNER CRT RR 1,ZEPHYR,ON,0E1T0
600295919,Certs Test 4,764 CH DES SABLES RR 2,ASCOT CORNER,QC,0B1A0
600295929,Certs Test 4,105 RUE JACQUES RR 1,SAINT-JEAN-DE-MATHA,QC,0K2S0
600295939,Certs Test 4,7 VALLEY RD GD,LEVACK,ON,0M2C0
600295949,Certs Test 4,3 MOONEY ST GD,CAPREOL,ON,0M1H0
600295959,Certs Test 4,35 RUE DE L'ANSE-AUX-FOINS RR 2,SAINT-FULGENCE,QC,0V1S0
600295969,Certs Test 4,1014 CH DE LA POINTE-DU-LAC RR 1,BOILEAU,QC,0V1N0
600295979,Certs Test 4,39 PARNHAM CRES GD,WILLOW BEACH,ON,0E1S0
600295989,Certs Test 4,4007 HIGHWAY 6 RR 2,PUSLINCH,ON,0B2J0
600296004,Certs Test 4,PO BOX 2236 STN CENTRAL,CHARLOTTETOWN,PE,1A8B9
600296014,Certs Test 4,PO BOX 6030 STN MAIN,WILLIAMS LAKE,BC,2G3W2
600296024,Certs Test 4,PO BOX 1257 STN T,TORONTO,ON,6B4A4
600296034,Certs Test 4,PO BOX 9813 STN T CSC,OTTAWA,ON,1G5L9
600296044,Certs Test 4,PO BOX 429 STN MAIN,PERTH,ON,7H3G1
600296054,Certs Test 4,PO BOX 1881 STN MAIN,PETERBOROUGH,ON,9J7X7
600296064,Certs Test 4,PO BOX 9534 STN MAIN,SAINT JOHN,NB,2L4N6
600296074,Certs Test 4,PO BOX 5181 STN B,LONDON,ON,6A4L6
600296084,Certs Test 4,CP 182 SUCC BUREAU-CHEF,SAINT-JEAN-CHRYSOSTOME,QC,6Z2L4
600296094,Certs Test 4,PO BOX 335 STN MAIN,RED BANK,NB,9E2P3
600296104,Certs Test 4,PO BOX 2382 STN A,ABBOTSFORD,BC,2T4X3
600296114,Certs Test 4,PO BOX 20029 RPO PINE CENTRE,THOROLD,ON,2V5B3
600296124,Certs Test 4,PO BOX 7011 STN ADELAIDE,TORONTO,ON,5C2K7
600296134,Certs Test 4,PO BOX 90624 STN T CSC,OTTAWA,ON,1G3N6
600296144,Certs Test 4,CP 49 SUCC BUREAU-CHEF,PORT-CARTIER,QC,5B2G7
600296154,Certs Test 4,PO BOX 108 STN CENTRAL,HALIFAX,NS,3J2L4
600296164,Certs Test 4,CP 1138 SUCC H,MONTREAL,QC,3G2N1
600296174,Certs Test 4,PO BOX 908 STN MAIN,MORDEN,MB,6M1A8
600296184,Certs Test 4,CP 5062 SUCC BUREAU-CHEF,SAINT-HYACINTHE,QC,2S7C3
600296194,Certs Test 4,PO BOX 13160 STN MAIN,SAINT JOHN,NB,2L5W1
600296204,Certs Test 4,PO BOX 2542 RPO SCOUDOUC,SCOUDOUC,NB,4P2Z9
600296214,Certs Test 4,PO BOX 37013 RPO STANLEY PARK,KITCHENER,ON,2A4A7
600296224,Certs Test 4,PO BOX 3440 STN D,OTTAWA,ON,1P6L4
600296234,Certs Test 4,PO BOX 20919 RPO PANDA CENTRE,YELLOWKNIFE,NT,1A3X8
600296244,Certs Test 4,PO BOX 32048 RPO MILLIKEN,SCARBOROUGH,ON,1V0E1
600296254,Certs Test 4,PO BOX 20113 RPO NORTOWN,CHATHAM,ON,7L5K6
600296264,Certs Test 4,PO BOX 32092 RPO PRESTON,CAMBRIDGE,ON,3H5M2
600296274,Certs Test 4,PO BOX 9003 RPO SOUTHPORT,DEVON,AB,9G0A7
600296284,Certs Test 4,PO BOX 929 STN MAIN,CHATHAM,ON,7M5L3
600296294,Certs Test 4,PO BOX 13001 RPO KANATA,KANATA,ON,2K1X3
600296304,Certs Test 4,CP 687 SUCC H,MONTREAL,QC,3G2M6
600296314,Certs Test 4,PO BOX 54207 RPO LONSDALE WEST,NORTH VANCOUVER,BC,7M3L5
600296324,Certs Test 4,PO BOX 38118 RPO RIDEAUVIEW,OTTAWA,ON,2C3Y7
600296334,Certs Test 4,PO BOX 15018 STN BRM B,TORONTO,ON,7Y2X8
600296344,Certs Test 4,CP 1721 SUCC ST-MARTIN,LAVAL,QC,7V3P9
600296354,Certs Test 4,PO BOX 870 STN MAIN,NORTH BAY,ON,1B8K1
600296364,Certs Test 4,PO BOX 48075 RPO MILL COVE,BEDFORD,NS,4A3Z2
600296374,Certs Test 4,PO BOX 1049 STN MAIN,SALISBURY,NB,4J3E2
600296384,Certs Test 4,PO BOX 14000 STN MAIN,EDMONTON,AB,5J2P4
600296394,Certs Test 4,PO BOX 3833 STN MAIN,VERMILION,AB,9X2B8
600296404,Certs Test 4,PO BOX 3589 STN MAIN,CASTLEGAR,BC,1N3W3
600296414,Certs Test 4,PO BOX 2141 STN DON MILLS,NORTH YORK,ON,3C2T9
600296424,Certs Test 4,PO BOX 21470 RPO CO-OP PLAZA,GRANDE PRAIRIE,AB,8V6W7
600296434,Certs Test 4,PO BOX 29175 RPO OKANAGAN MISS.,KELOWNA,BC,1W4A7
600296444,Certs Test 4,CP 1647 SUCC SAINT-LAURENT,SAINT-LAURENT,QC,4L4Z2
600296454,Certs Test 4,PO BOX 538 STN MAIN,BRADFORD,ON,3Z2B1
600296464,Certs Test 4,PO BOX 66 STN CHATHAM,MIRAMICHI,NB,1N3A5
600296474,Certs Test 4,PO BOX 6 STN U,ETOBICOKE,ON,8Z5M4
600296484,Certs Test 4,PO BOX 1999 STN MAIN,SAINT JOHN,NB,2L4X5
600296494,Certs Test 4,PO BOX 3946 STN MAIN,MARKHAM,ON,3P4C7
600296504,Certs Test 4,PO BOX 60014 RPO PROFESS CENTRE,HALIFAX,NS,3H4R7
600296514,Certs Test 4,CP 781 SUCC PLACE-D'ARMES,MONTREAL,QC,2Y3J2
600296524,Certs Test 4,PO BOX 561 STN CSC,BELLEVILLE,ON,8N5B2
600296534,Certs Test 4,PO BOX 21105 RPO HOLIDAY,CAMBRIDGE,ON,3C4B1
600296544,Certs Test 4,PO BOX 86 STN MAIN,PERTH,ON,7H3E2
600296554,Certs Test 4,PO BOX 980 RPO 1,ELLIOT LAKE,ON,5A0A1
600296564,Certs Test 4,PO BOX 94497 STN MAIN,RICHMOND,BC,6X8V6
600296574,Certs Test 4,PO BOX 5226 STN MAIN,KENORA,ON,9N3X9
600296584,Certs Test 4,PO BOX 85151 RPO BRANT PLAZA,BURLINGTON,ON,7R4K4
600296594,Certs Test 4,CP 140 SUCC HAUTE-VILLE,QUEBEC,QC,1R4P3
600296604,Certs Test 4,CP 401 SUCC R,MONTREAL,QC,2S3M2
600296614,Certs Test 4,PO BOX 204 STN AGINCOURT,SCARBOROUGH,ON,1S3B6
600296624,Certs Test 4,CP 361 SUCC BUREAU-CHEF,LACHUTE,QC,8H3X9
600296634,Certs Test 4,PO BOX 3547 STN MAIN,LIVELY,ON,3Y1M6
600296644,Certs Test 4,PO BOX 3003 STN MAIN,BLACKS HARBOUR,NB,5H1R3
600296654,Certs Test 4,CP 92092 CSP PORTOBELLO,BROSSARD,QC,4W3K8
600296664,Certs Test 4,PO BOX 1009 STN MAIN,NIAGARA FALLS,ON,2E6V9
600296674,Certs Test 4,CP 26018 CSP DU BOISE,TROIS-RIVIERES,QC,8Y7M1
600296684,Certs Test 4,PO BOX 5552 RPO WEST BEAVER CRE,RICHMOND HILL,ON,4B4S3
600296694,Certs Test 4,PO BOX 379 STN MAIN,ST CATHARINES,ON,2R6T7
600296704,Certs Test 4,PO BOX 371 STN DOWNSVIEW A,NORTH YORK,ON,3M3A8
600296714,Certs Test 4,PO BOX 2109 STN MAIN,CALEDONIA,ON,3W2G6
600296724,Certs Test 4,CP 53546 CSP NORTHGATE,SAINT-LAURENT,QC,4L5J9
600296734,Certs Test 4,PO BOX 3227 STN MAIN,WAINWRIGHT,AB,9W1T2
600296744,Certs Test 4,PO BOX 352 STN MAIN,GLACE BAY,NS,1A5V4
600296754,Certs Test 4,PO BOX 41665 RPO HEART LAKE,BRAMPTON,ON,6Z4R1
600296764,Certs Test 4,PO BOX 13138 STN TERMINAL,VANCOUVER,BC,6B4W6
600296774,Certs Test 4,PO BOX 2171 STN B,ETOBICOKE,ON,9W5L6
600296784,Certs Test 4,PO BOX 15511 RPO RAVINE PARK PLA,SCARBOROUGH,ON,1C4Z7
600296794,Certs Test 4,PO BOX 7110 STN MAIN,BONNYVILLE,AB,9N2H4
600296804,Certs Test 4,PO BOX 2135 STN MAIN,TIMMINS,ON,4N7X8
600296814,Certs Test 4,PO BOX 98 STN MAIN,MOOSE JAW,SK,6H4N7
600296824,Certs Test 4,PO BOX 37066 RPO CENTERPOINT,NORTH YORK,ON,2M4J8
600296834,Certs Test 4,CP 60540 CSP STE-CATHERINE E,MONTREAL,QC,1V3T8
600296844,Certs Test 4,CP 2041 SUCC BUREAU-CHEF,SAINT-REDEMPTEUR,QC,6K1P2
600296854,Certs Test 4,PO BOX 98 STN ADELAIDE,TORONTO,ON,5C2H8
600296864,Certs Test 4,PO BOX 9760 STN PROV GOVT,VICTORIA,BC,8W9S4
600296874,Certs Test 4,PO BOX 27012 RPO OCEAN GROVE,CAMPBELL RIVER,BC,9H0B8
600296884,Certs Test 4,PO BOX 1055 STN MAIN,TIMMINS,ON,4N7H6
600296894,Certs Test 4,PO BOX 9156 STN MAIN,SYLVAN LAKE,AB,4S1S8
600296904,Certs Test 4,PO BOX 22024 RPO TAYLORS VARIETY,WALLACEBURG,ON,8A5G4
600296914,Certs Test 4,PO BOX 80326 STN SOUTH,BURNABY,BC,5H3X6
600296924,Certs Test 4,PO BOX 804 STN BRISTOL,FLORENCEVILLE-BRISTOL,NB,7L4T3
600296934,Certs Test 4,PO BOX 327 STN MAIN,HANMER,ON,3P1T2
600296944,Certs Test 4,PO BOX 6972 STN DON MILLS,NORTH YORK,ON,3C2T9
600296954,Certs Test 4,PO BOX 1959 STN MAIN,REGINA,SK,4P3E1
600296964,Certs Test 4,CP 65012 CSP CHARLEVOIX,MONTREAL,QC,3K0K4
600296974,Certs Test 4,PO BOX 33025 RPO COLWOOD CORNERS,VICTORIA,BC,9B6K3
600296984,Certs Test 4,PO BOX 9024 RPO BROOKS,BROOKS,AB,1R0W5
600296994,Certs Test 4,PO BOX 15022 STN BRM B,TORONTO,ON,7Y2Y2
600298009,Certs Test 4,7595 RUE SAINT-DOMINIQUE,MONTREAL,QC,2R1X4
600298019,Certs Test 4,1137 COXHEATH RD,SYDNEY,NS,1L1B2
600298029,Certs Test 4,10 RED ASH DR,MARKHAM,ON,3S4B6
600298039,Certs Test 4,586 RUE GERARD,BLAINVILLE,QC,7C2B2
600298049,Certs Test 4,8230 AV HENRI-JULIEN,MONTREAL,QC,2P2J2
600298059,Certs Test 4,217 HIGHVIEW DR,ST THOMAS,ON,5R5H6
600298069,Certs Test 4,112 MARGARET PL,BROCKVILLE,ON,6V6Y3
600298079,Certs Test 4,210 ALEXANDRA AVE,POINT EDWARD,ON,7V1C4
600298089,Certs Test 4,646 PINELAND RD NE,CALGARY,AB,1Y3C6
600298099,Certs Test 4,658 RUE SAINTE-LUCIE,SHERBROOKE,QC,1R0V3
600298109,Certs Test 4,7 ROYAL DOULTON DR,NORTH YORK,ON,3A1N3
600298119,Certs Test 4,142 MITTON ST S,SARNIA,ON,7T3C7
600298129,Certs Test 4,105 STORNWOOD CRT,BRAMPTON,ON,6W4H6
600298139,Certs Test 4,1941 SPRUCE HILL RD,PICKERING,ON,1V1S6
600298149,Certs Test 4,2631 BLOKKER RD,NANOOSE BAY,BC,9P9E8
600298159,Certs Test 4,2386 ROBMAR DR,OAKVILLE,ON,6H0B2
600298169,Certs Test 4,510 TRIPP SETTLEMENT RD,KESWICK RIDGE,NB,6L1W7
600298179,Certs Test 4,147 RUE FLEMING,DELSON,QC,5B1X5
600298189,Certs Test 4,1703 32 AVE,VERNON,BC,1T2J3
600298199,Certs Test 4,367 CH LEO-LEBLANC,GATINEAU,QC,8R3B3
600298209,Certs Test 4,578 ST. THOMAS LINE,PARADISE,NL,1L3T4
600298219,Certs Test 4,347 BEECHLAWN DR,WATERLOO,ON,2L5L8
600298229,Certs Test 4,4214 53 AVE,STONY PLAIN,AB,7Z1G5
600298239,Certs Test 4,277 FLEMING DR,LONDON,ON,5V4Y7
600298249,Certs Test 4,182 RUE LOUIS-J.-LAFORTUNE,BOUCHERVILLE,QC,4B6R5
600298259,Certs Test 4,50 THIRD ST,STURGEON FALLS,ON,2B3G3
600298269,Certs Test 4,26 HARLEW CRT,NEW HAMBURG,ON,3A2H6
600298279,Certs Test 4,4297 NICURITY DR,REGINA,SK,4X0C1
600298289,Certs Test 4,104 SQUIRREL CRES,CANMORE,AB,1W2R1
600298299,Certs Test 4,10192 RUE DES GELINOTTES,TROIS-RIVIERES,QC,9B0A4
600298309,Certs Test 4,57 13TH AVE E,WHITEHORSE,YT,1A4K6
600298319,Certs Test 4,4340 AV D'OXFORD,MONTREAL,QC,4A2Y6
600298329,Certs Test 4,135 RUE DE RAMEZAY,SOREL-TRACY,QC,3P3Z6
600298339,Certs Test 4,282 90E AV,LASALLE,QC,8R2Z6
600298349,Certs Test 4,2168 GOLDEN ORCHARD TRAIL,OAKVILLE,ON,6M3W7
600298359,Certs Test 4,2464 ROUTE 910,BERRYTON,NB,1J2H4
600298369,Certs Test 4,4225 6 AVE,EDSON,AB,7E1A7
600298379,Certs Test 4,352 1RE AV,LASALLE,QC,8P2E8
600298389,Certs Test 4,3819 CH DU VILLEGIATEUR,ALMA,QC,8B0E6
600298399,Certs Test 4,2989 KING GEORGE HWY,MIRAMICHI,NB,1V7B7
600298409,Certs Test 4,1214 FATIMA ST,CORNWALL,ON,6J4Z6
600298419,Certs Test 4,11940 90 AVE,DELTA,BC,4C3H6
600298429,Certs Test 4,11 GRAFTON DR,QUISPAMSIS,NB,2E5Z2
600298439,Certs Test 4,26 COLONIAL AVE,STEPHENVILLE,NL,2N1Y6
600298449,Certs Test 4,3 DOMINY DR,AJAX,ON,1T3H7
600298459,Certs Test 4,8923 RUE SAINT-URBAIN,MONTREAL,QC,2N1S6
600298469,Certs Test 4,35 WOODLAWN AVE,OTTAWA,ON,1S2S8
600298479,Certs Test 4,11 STILLWATER LANE,UPPER TANTALLON,NS,3Z1H6
600298489,Certs Test 4,30 TROTTIER DR,TILLSONBURG,ON,4G4P9
600298499,Certs Test 4,7 FERNDELL CIR,UNIONVILLE,ON,3R3Y7
600298509,Certs Test 4,15 RUE AUBUT,GASPE,QC,4X5H5
600298519,Certs Test 4,87 AV GAUDREAULT,DOLBEAU-MISTASSINI,QC,8L4C1
600298529,Certs Test 4,145 WILLOW ST,AMHERST,NS,4H3W6
600298539,Certs Test 4,25 DESAUTELS ST,STE ANNE,MB,5H1B9
600298549,Certs Test 4,152 JANSEN AVE,KITCHENER,ON,2A2L7
600298559,Certs Test 4,34 CH DE LA CEDRIERE,RIVIERE-DU-PORTAGE,NB,9H1V1
600298569,Certs Test 4,26 ACADEMY CRES,WATERLOO,ON,2L5H7
600298579,Certs Test 4,1048 TROY PL,QUALICUM BEACH,BC,9K2G5
600298589,Certs Test 4,5026 31 ST,SYLVAN LAKE,AB,4S1A8
600298599,Certs Test 4,49 MINGAY AVE,MARKHAM,ON,6E1E5
600298609,Certs Test 4,26 TOMLINSON CIR,MARKHAM,ON,3R9J9
600298619,Certs Test 4,14 TRILLIUM WAY,PARIS,ON,3L3M5
600298629,Certs Test 4,118 BROOKLAND ST,SYDNEY,NS,1P5B4
600298639,Certs Test 4,532 RUE SAINT-ALFRED,RIVIERE-DU-LOUP,QC,5R3M4
600298649,Certs Test 4,23 CROYDON RD,YORK,ON,6C1S6
600298659,Certs Test 4,2505 33 ST NW,EDMONTON,AB,6T1Y3
600298669,Certs Test 4,3975 WEST GRAHAM PL,LONDON,ON,6P1G4
600298679,Certs Test 4,331 NAGEL AVE,ORLEANS,ON,1E1R8
600298689,Certs Test 4,177 KESWICK RD,BASS RIVER,NB,4T1B4
600298699,Certs Test 4,51 HERBERT ST,BRANTFORD,ON,3R3Z9
600298709,Certs Test 4,272 POINTE-DU-CHENE RD,POINTE-DU-CHENE,NB,4P4V6
600298719,Certs Test 4,214 RUE LEO-CLEMENT,LACHUTE,QC,8H3S1
600298729,Certs Test 4,534 NIBLICK CLOSE,QUALICUM BEACH,BC,9K1E6
600298739,Certs Test 4,53 CHATTERSON ST,WHITBY,ON,1R0B3
600298749,Certs Test 4,15 KILREA WAY,BRAMPTON,ON,6X0P9
600298759,Certs Test 4,698 MORRISH RD,SCARBOROUGH,ON,1C1G3
600298769,Certs Test 4,1337 CEDARWOOD RD,LADYSMITH,BC,9G1R4
600298779,Certs Test 4,130 BOUL CHAMPLAIN,CANDIAC,QC,5R3S9
600298789,Certs Test 4,125 LOUISA ST,BADEN,ON,3A2T8
600298799,Certs Test 4,159 PRINCESS MARGARET BLVD,DARTMOUTH,NS,3B1A4
600298809,Certs Test 4,101 HEMLOCK ST,PETAWAWA,ON,8H3C3
600298819,Certs Test 4,100 GLADSTONE AVE,HAMILTON,ON,8M2H9
600298829,Certs Test 4,22 HENNICK CRT,BURTON,NB,2V4J1
600298839,Certs Test 4,169 SCOTCH LAKE RD,GEORGES RIVER,NS,1Y3V3
600298849,Certs Test 4,16112 136 ST NW,EDMONTON,AB,6V0C2
600298859,Certs Test 4,121 RUE DU PARC,VICTORIAVILLE,QC,6P3S3
600298869,Certs Test 4,4107 47 AVE,DRAYTON VALLEY,AB,7A1E8
600298879,Certs Test 4,55 MORGAN AVE,THORNHILL,ON,3T1R3
600298889,Certs Test 4,171 WESTERN GULLY RD,PORTUGAL COVE-ST PHILIPS,NL,1M2Y2
600298899,Certs Test 4,208 BEECH ST E,WHITBY,ON,1N3B2
600298909,Certs Test 4,64 HARVIE CRES,ESPANOLA,ON,5E1A6
600298919,Certs Test 4,17 DAVIS RD,AURORA,ON,4G2B4
600298929,Certs Test 4,860 RUE ARTHUR-TRAHAN,NICOLET,QC,3T1J3
600298939,Certs Test 4,15 POWER'S LANE,LOGY BAY,NL,1K3E9
600298949,Certs Test 4,1587 RUE LA VERENDRYE,TROIS-RIVIERES,QC,8Z2C8
600298959,Certs Test 4,17 LINSMARY CRT,MARKHAM,ON,6E1L2
600298969,Certs Test 4,180 MILLARD ST,STOUFFVILLE,ON,4A5E1
600298979,Certs Test 4,508 RUE SCOTT O,ALMA,QC,8B1R2
600298989,Certs Test 4,39 MILLBANK CRT,THORNHILL,ON,4J6C1
600299004,Certs Test 4,430 RUE DE NORMANDIE,CHICOUTIMI,QC,7H1J3
600299014,Certs Test 4,5779 RUE WAVERLY,MONTREAL,QC,2T2Y2
600299024,Certs Test 4,46 WALNUT LANE,QUISPAMSIS,NB,2G1X2
600299034,Certs Test 4,1562 RUE DU MOMMESSIN,SHERBROOKE,QC,1N0H9
600299044,Certs Test 4,45 CHRISTIAN ST,BADEN,ON,3A2M7
600299054,Certs Test 4,626 JAMES ST N,THUNDER BAY,ON,7C4T5
600299064,Certs Test 4,909 RUE ALBERT-FILLION,GATINEAU,QC,8L3R1
600299074,Certs Test 4,91 MILL ST,ORANGEVILLE,ON,9W2M9
600299084,Certs Test 4,3240 FOLKWAY DR,BURLINGTON,ON,7M3J6
600299094,Certs Test 4,8692 RUE TELLIER,MONTREAL,QC,1L3B1
600299104,Certs Test 4,51 NORTON AVE,NORTH YORK,ON,2N4A2
600299114,Certs Test 4,97 ST GEORGE ST,LONDON,ON,6A2Z6
600299124,Certs Test 4,207 ALBERT ST W,ALLISTON,ON,9R1B6
600299134,Certs Test 4,41 BIRCH ST,GRAND FALLS-WINDSOR,NL,2A2B5
600299144,Certs Test 4,3331 DOVERTHORN RD SE,CALGARY,AB,2B2H1
600299154,Certs Test 4,124 RUE SAINT-JOSEPH,LEVIS,QC,6V1C3
600299164,Certs Test 4,4179 WALTERS ST,MERRITT,BC,1K1L7
600299174,Certs Test 4,1243 RUE DE MINGAN,BAIE-COMEAU,QC,5C3S1
600299184,Certs Test 4,1557 RYMAL RD E,HAMILTON,ON,8W3N2
600299194,Certs Test 4,2406 KALUM ST,TERRACE,BC,8G2M3
600299204,Certs Test 4,14917 48 ST NW,EDMONTON,AB,5Y2Z3
600299214,Certs Test 4,81 SWEDE RD,LITTLE RIDGE,NB,3L5S2
600299224,Certs Test 4,14 CLEOPHAS DR,WINDSOR,ON,8N4K8
600299234,Certs Test 4,475 LYON ST N,OTTAWA,ON,1R5X4
600299244,Certs Test 4,2467 JOANNE DR,CAMPBELL RIVER,BC,9H1V7
600299254,Certs Test 4,4395 KERRY CRT,BURLINGTON,ON,7L1W5
600299264,Certs Test 4,923 RUE ETIENNE-BRULE,BOUCHERVILLE,QC,4B6V9
600299274,Certs Test 4,654 7 AVE,WAINWRIGHT,AB,9W1B5
600299284,Certs Test 4,250 DEMPSEY ST,RED DEER,AB,4R3E3
600299294,Certs Test 4,23 POUSHAY DR,SYDNEY,NS,1L1B4
600299304,Certs Test 4,26 GARRETT CRES,BARRIE,ON,4M4R8
600299314,Certs Test 4,199 CH SOUS-LES-ARBRES,MONT-TREMBLANT,QC,8E0B9
600299324,Certs Test 4,2327 WHITEHALL DR,THUNDER BAY,ON,7K1G5
600299334,Certs Test 4,264 HELENA AVE,STONEY CREEK,ON,8E5Y3
600299344,Certs Test 4,3718 BOUL NOTRE-DAME,LAVAL,QC,7V1R4
600299354,Certs Test 4,86 MARYDALE AVE,MARKHAM,ON,3S3A9
600299364,Certs Test 4,116 RUE IBERVILLE E,ROUYN-NORANDA,QC,9X3M8
600299374,Certs Test 4,88 COVINGTON PL,NEPEAN,ON,2G6B6
600299384,Certs Test 4,434 AV DE VENUS,SAINTE-MARIE,QC,6E1B9
600299394,Certs Test 4,241 MARTINDALE BLVD NE,CALGARY,AB,3J2X8
600299404,Certs Test 4,262 SAINT-AUBIN RD,DUNDEE,NB,8E2A2
600299414,Certs Test 4,915 RUE THIBAUDEAU,L'ILE-BIZARD,QC,9C2S9
600299424,Certs Test 4,3 LUMLEY AVE,EAST YORK,ON,4G2X3
600299434,Certs Test 4,7 WELLINGTON ST,PARIS,ON,3L1S3
600299444,Certs Test 4,41 CYGNUS DR,RICHMOND HILL,ON,4C8P1
600299454,Certs Test 4,504 COUNTY BLVD,THUNDER BAY,ON,7A7W3
600299464,Certs Test 4,247 RUE DE LA MILICE,LONGUEUIL,QC,4L4H7
600299474,Certs Test 4,871 WEST PENNANT RD,WEST PENNANT,NS,3V1M4
600299484,Certs Test 4,1687 LAILAH'S LOOP,QUALICUM BEACH,BC,9K2S3
600299494,Certs Test 4,147 SHAVER AVE N,ETOBICOKE,ON,9B4N9
600299504,Certs Test 4,86 WOODINGTON AVE,TORONTO,ON,4C3J8
600299514,Certs Test 4,1255 RANDBORO CRES,NAVAN,ON,4B1K7
600299524,Certs Test 4,13 RUE DE L'AVALANCHE,RIMOUSKI,QC,5N5B5
600299534,Certs Test 4,5432 RUE DRAKE,MONTREAL,QC,4E4E6
600299544,Certs Test 4,35 KENNY CLOSE,RED DEER,AB,4P4C3
600299554,Certs Test 4,4 PROMENADE PL,BEAUMONT,AB,4X1R1
600299564,Certs Test 4,46 THIRTY THIRD ST,ETOBICOKE,ON,8W3H1
600299574,Certs Test 4,11458 39 AVE NW,EDMONTON,AB,6J0M6
600299584,Certs Test 4,143 HARBOURSIDE DR,WHITBY,ON,1N0H2
600299594,Certs Test 4,15 NEWMARKET AVE,TORONTO,ON,4C1V8
600299604,Certs Test 4,332 RUE BROUSSEAU,BELOEIL,QC,3G1X8
600299614,Certs Test 4,28 RUE DU DOMAINE,LA MALBAIE,QC,5A0A5
600299624,Certs Test 4,139 LAURIER DR NW,EDMONTON,AB,5R5P9
600299634,Certs Test 4,685 6 AVE,WAINWRIGHT,AB,9W1B6
600299644,Certs Test 4,431 RUE DE LA MONTAGNE,MONTREAL,QC,3C2B4
600299654,Certs Test 4,2702 RUE DANDURAND,MONTREAL,QC,1Y1S9
600299664,Certs Test 4,228 BICKNELL CRES,KINGSTON,ON,7M4T6
600299674,Certs Test 4,3568 RUE SAINT-EDOUARD,LAC-MEGANTIC,QC,6B2L8
600299684,Certs Test 4,11238 YONGE ST,RICHMOND HILL,ON,4S1K9
600299694,Certs Test 4,4303 LAKESHORE DR,BONNYVILLE,AB,9N1N6
600299704,Certs Test 4,60 GRIZZLY TERR N,LETHBRIDGE,AB,1H6T4
600299714,Certs Test 4,2650 SEYMOUR PL,CAMPBELL RIVER,BC,9H1S3
600299724,Certs Test 4,9 DELORAINE DR,BRAMPTON,ON,6T1T5
600299734,Certs Test 4,113 COPPERFIELD LANE SE,CALGARY,AB,2Z4S9
600299744,Certs Test 4,587 7E RUE,QUEBEC,QC,1J2R8
600299754,Certs Test 4,88 STEPHEN DR,BOLTON,ON,7E4Y5
600299764,Certs Test 4,1206 3E AV,SAINT-REDEMPTEUR,QC,6K1G1
600299774,Certs Test 4,31 RUE CHARLES-POITEVIN,GATINEAU,QC,8M1C3
600299784,Certs Test 4,122 SLINGER AVE,STONEY CREEK,ON,8J2S8
600299794,Certs Test 4,128 DUNBAR RD S,WATERLOO,ON,2L2E9
600299804,Certs Test 4,328 HORSHAM AVE,NORTH YORK,ON,2R1G6
600299814,Certs Test 4,1684 BOUL DU MI-VALLON,SHERBROOKE,QC,1N0P6
600299824,Certs Test 4,2626 RHONDDA CRES,KELOWNA,BC,1Y8W4
600299834,Certs Test 4,6 WATT AVE,YORK,ON,6M3R1
600299844,Certs Test 4,818 TALBOT ST,LONDON,ON,6A2V8
600299854,Certs Test 4,33 BRISTOW CREEK DR,ELMIRA,ON,3B3K6
600299864,Certs Test 4,36 DISCOVERY AVE,MORINVILLE,AB,8R1N4
600299874,Certs Test 4,264 CUMBERLAND AVE,HAMILTON,ON,8M2A1
600299884,Certs Test 4,107 RIVER AVE,COCHRANE,AB,4C2C2
600299894,Certs Test 4,16506 92A AVE NW,EDMONTON,AB,5R5G4
600299904,Certs Test 4,99 DUNBAR RD S,WATERLOO,ON,2L2E4
600299914,Certs Test 4,1192 BRITTAIN RD,LOWER GREENWICH,NB,5K4K4
600299924,Certs Test 4,7 OLIVE DR,LOWER GREENWICH,NB,5K4R1
600299934,Certs Test 4,1074 ARMITAGE CRES SW,EDMONTON,AB,6W0K3
600299944,Certs Test 4,39 AMBERLEY DR,SCARBOROUGH,ON,1R4K5
600299954,Certs Test 4,1127 RUE ALBERT-GEOFFROY,JOLIETTE,QC,6E7P7
600299964,Certs Test 4,316 ROUTE 895,PORTAGE VALE,NB,4Z3E9
600299974,Certs Test 4,56 9E AVENUE,DRUMMONDVILLE,QC,2B2S5
600299984,Certs Test 4,1103 RIVERWOOD AVE,WINNIPEG,MB,3T1L5
600299994,Certs Test 4,541 CH POINTE ALEXANDRE,POINTE-ALEXANDRE,NB,8T2J4
600300009,Certs Test 4,PO BOX 6148 STN MAIN,SACKVILLE,NB,4L1G6
600300019,Certs Test 4,PO BOX 2318 STN C,KITCHENER,ON,2H6M2
600300029,Certs Test 4,PO BOX 20255 STN MAIN,WHITEHORSE,YT,1A7A2
600300039,Certs Test 4,PO BOX 37029 RPO STANLEY PARK,KITCHENER,ON,2A4A7
600300049,Certs Test 4,PO BOX 741 STN C,ST. JOHN'S,NL,1C5L4
600300059,Certs Test 4,PO BOX 42068 RPO OAK BAY,VICTORIA,BC,8R6T4
600300069,Certs Test 4,PO BOX 185 RPO STREETSVILLE,MISSISSAUGA,ON,5M2B8
600300079,Certs Test 4,PO BOX 32029 RPO HARDING,RICHMOND HILL,ON,4C9S3
600300089,Certs Test 4,PO BOX 1874 STN MAIN,BRACEBRIDGE,ON,1L1V8
600300099,Certs Test 4,PO BOX 5012 STN POSTAL BOX CTR,RED DEER,AB,4N6A1
600300109,Certs Test 4,PO BOX 837 STN BRISTOL,FLORENCEVILLE-BRISTOL,NB,7L4T3
600300119,Certs Test 4,PO BOX 3001 STN MAIN,WINNIPEG,MB,3C4B5
600300129,Certs Test 4,PO BOX 2045 STN CENTRAL,HALIFAX,NS,3J2Z1
600300139,Certs Test 4,CP 47021 CSP PLACE LASALLE,LASALLE,QC,8P3V9
600300149,Certs Test 4,PO BOX 836 STN MAIN,PORTAGE LA PRAIRIE,MB,1N3C3
600300159,Certs Test 4,PO BOX 933 STN MAIN,WEYBURN,SK,4H2L2
600300169,Certs Test 4,PO BOX 128 STN A,TORONTO,ON,5W1A2
600300179,Certs Test 4,CP 50562 CSP CARRE PELLETIER,BROSSARD,QC,4X2V7
600300189,Certs Test 4,CP 625 SUCC BUREAU-CHEF,SAINT-JEROME,QC,7Z5V3
600300199,Certs Test 4,PO BOX 20516 RPO WORSLEY,STONEY CREEK,ON,8G0A4
600300209,Certs Test 4,PO BOX 13608 RPO KANATA,KANATA,ON,2K1X6
600300219,Certs Test 4,PO BOX 3699 LCD 4,HAMILTON,ON,8H7N1
600300229,Certs Test 4,PO BOX 22020 RPO HERON GATE,OTTAWA,ON,1V0W2
600300239,Certs Test 4,PO BOX 8546 STN A,ST. JOHN'S,NL,1B3P2
600300249,Certs Test 4,PO BOX 1742 RPO PRINCE,TRURO,NS,2N5Z5
600300259,Certs Test 4,CP 65023 CSP AUX QUATRE COIN,ROSEMERE,QC,7A4P1
600300269,Certs Test 4,PO BOX 2125 RPO FALL RIVER,FALL RIVER,NS,2T1K6
600300279,Certs Test 4,PO BOX 903 STN MAIN,CRANBROOK,BC,1C4J6
600300289,Certs Test 4,CP 81 SUCC POINTE-CLAIRE,POINTE-CLAIRE,QC,9R4N5
600300299,Certs Test 4,CP 367 PDF 1,TROIS-RIVIERES,QC,9A5G4
600300309,Certs Test 4,CP 208 SUCC PL-DESJARDINS,MONTREAL,QC,5B1B3
600300319,Certs Test 4,CP 316 PDF AYLMER,GATINEAU,QC,9H5E6
600300329,Certs Test 4,PO BOX 548 STN MAIN,EDMONTON,AB,5J2K8
600300339,Certs Test 4,CP 8598 SUCC CENTRE VILLE,MONTREAL,QC,3C3P3
600300349,Certs Test 4,PO BOX 796 STN MAIN,STEINBACH,MB,5G1M6
600300359,Certs Test 4,PO BOX 19017 STN BRM B,TORONTO,ON,7Y3N7
600300369,Certs Test 4,PO BOX 904 RPO PRINCE,TRURO,NS,2N5G6
600300379,Certs Test 4,PO BOX 442 STN T,CALGARY,AB,2H2G9
600300389,Certs Test 4,CP 307 SUCC BUREAU-CHEF,SOREL-TRACY,QC,3P5N8
600300399,Certs Test 4,PO BOX 9716 STN MAIN,SASKATOON,SK,7K7G5
600300409,Certs Test 4,PO BOX 23034 RPO MARKET MALL,SASKATOON,SK,7J5H3
600300419,Certs Test 4,PO BOX 33044 RPO POLO PARK,WINNIPEG,MB,3G3N4
600300429,Certs Test 4,PO BOX 50731 RPO CITY CENTRE,BRAMPTON,ON,6T5M2
600300439,Certs Test 4,CP 2072 SUCC A,RIMOUSKI,QC,5L7P3
600300449,Certs Test 4,PO BOX 36032 RPO SPRING GARDEN,HALIFAX,NS,3J3S9
600300459,Certs Test 4,PO BOX 8121 STN MAIN,ESKASONI,NS,1W1C3
600300469,Certs Test 4,PO BOX 93588 RPO NELSON PARK,VANCOUVER,BC,6E4L7
600300479,Certs Test 4,PO BOX 30 STN TORONTO DOM,TORONTO,ON,5K1B7
600300489,Certs Test 4,PO BOX 30089 RPO KING ST W,TORONTO,ON,5V0A3
600300499,Certs Test 4,PO BOX 39057 RPO TOPSAIL RD,ST. JOHN'S,NL,1E5Y7
600300509,Certs Test 4,PO BOX 21057 RPO JANE-FINCH MALL,NORTH YORK,ON,3N3A3
600300519,Certs Test 4,PO BOX 50085 RPO SOUTHEAST,BRANDON,MB,7A7E4
600300529,Certs Test 4,PO BOX 891 STN MAIN,BROCKVILLE,ON,6V5W1
600300539,Certs Test 4,CP 36592 CSP VICTORIA,SAINT-LAMBERT,QC,4P3S8
600300549,Certs Test 4,PO BOX 2423 STN MAIN,SAINT JOHN,NB,2L3V9
600300559,Certs Test 4,PO BOX 5847 STN MAIN,SQUAMISH,BC,8B0C2
600300569,Certs Test 4,PO BOX 20206 RPO RIDEAU EAST,OTTAWA,ON,1N9P4
600300579,Certs Test 4,CP 173 SUCC BUREAU-CHEF,FARNHAM,QC,2N2R5
600300589,Certs Test 4,PO BOX 2028 STN B,TORONTO,ON,5T0A3
600300599,Certs Test 4,PO BOX 60003 STN BRM B,TORONTO,ON,7Y2H3
600300609,Certs Test 4,PO BOX 3204 STN MAIN,SHERWOOD PARK,AB,8H2T2
600300619,Certs Test 4,PO BOX 490 STN A,OTTAWA,ON,1N8V5
600300629,Certs Test 4,PO BOX 69115 RPO BRIDLEWOOD,CALGARY,AB,2Y4T9
600300639,Certs Test 4,PO BOX 348 STN MAIN,BRACEBRIDGE,ON,1L1T7
600300649,Certs Test 4,PO BOX 564 STN MAIN,SAULT STE. MARIE,ON,6A5M6
600300659,Certs Test 4,PO BOX 32106 RPO WESTGATE,MAPLE RIDGE,BC,2X0G9
600300669,Certs Test 4,PO BOX 340 STN A,CAMPBELL RIVER,BC,9W5B6
600300679,Certs Test 4,PO BOX 754 STN CENTRAL,HALIFAX,NS,3J2V2
600300689,Certs Test 4,PO BOX 536 STN Q,TORONTO,ON,4T2M5
600300699,Certs Test 4,PO BOX 2 LCD 1,MEDICINE HAT,AB,1A7E5
600300709,Certs Test 4,PO BOX 3039 STN A,MISSISSAUGA,ON,5A3A4
600300719,Certs Test 4,CP 5016 SUCC BUREAU-CHEF,SAINTE-JULIE,QC,3E1W6
600300729,Certs Test 4,PO BOX 14760 STN BRM B,TORONTO,ON,7Y2S1
600300739,Certs Test 4,PO BOX 24413 STN BRM B,TORONTO,ON,7Y4J1
600300749,Certs Test 4,CP 15056 SUCC CENTRE VILLE,MONTREAL,QC,3C0J1
600300759,Certs Test 4,PO BOX 9745 STN FORCES,EDMONTON,AB,5J4J5
600300769,Certs Test 4,PO BOX 97444 LCD 2,MISSISSAUGA,ON,4Y0A6
600300779,Certs Test 4,PO BOX 1334 STN NORTH HEAD,GRAND MANAN,NB,5G4M9
600300789,Certs Test 4,PO BOX 181 STN MAIN,KIRKLAND LAKE,ON,2N3H7
600300799,Certs Test 4,PO BOX 875 STN CENTRAL,HALIFAX,NS,3J2V9
600300809,Certs Test 4,PO BOX 3266 LCD 4,HAMILTON,ON,8H7K6
600300819,Certs Test 4,PO BOX 901 STN B,SUDBURY,ON,3E4S4
600300829,Certs Test 4,PO BOX 8709 STN MAIN,CANMORE,AB,1W0B9
600300839,Certs Test 4,PO BOX 4373 STN MAIN,PETERBOROUGH,ON,9J7B1
600300849,Certs Test 4,PO BOX 2330 STN MAIN,SIDNEY,BC,8L3W6
600300859,Certs Test 4,PO BOX 128 STN MAIN,MANOTICK,ON,4M1A2
600300869,Certs Test 4,PO BOX 1999 STN MAIN,KINGSTON,ON,7L5J8
600300879,Certs Test 4,PO BOX 20192 RPO CALGARY PLACE,CALGARY,AB,2P4J3
600300889,Certs Test 4,PO BOX 1082 STN MAIN,OAKVILLE,ON,6J5E9
600300899,Certs Test 4,PO BOX 577 RPO CENTENNIAL SQ,MOUNT PEARL,NL,1N2W4
600300909,Certs Test 4,PO BOX 42045 RPO ST LAURENT,OTTAWA,ON,1K4L8
600300919,Certs Test 4,PO BOX 2341 STN MAIN,EDMONTON,AB,5J2P4
600300929,Certs Test 4,PO BOX 31027 RPO MOLSON PARK,BARRIE,ON,4N0B3
600300939,Certs Test 4,PO BOX 154 CDO PRINCE RUPERT,PRINCE RUPERT,BC,8J3P6
600300949,Certs Test 4,PO BOX 633 STN DEL.CENTRE,YORKTON,SK,3N2W7
600300959,Certs Test 4,CP 521 SUCC BUREAU-CHEF,SALABERRY-DE-VALLEYFIELD,QC,6S5N6
600300969,Certs Test 4,PO BOX 21086 RPO DAWSON MALL,DAWSON CREEK,BC,1G4X8
600300979,Certs Test 4,PO BOX 6856 STN MAIN,QUESNEL,BC,2J3J5
600300989,Certs Test 4,PO BOX 469 STN MAIN,OWEN SOUND,ON,4K5P7
600301004,Certs Test 4,RR 2 LCD 1,NEWMARKET,ON,3Y4V9
600301014,Certs Test 4,SS 2 SUCC BUREAU-CHEF,WINDSOR,QC,1S2L5
600301024,Certs Test 4,RR 2 STN MAIN,DUNNVILLE,ON,1A2W2
600301034,Certs Test 4,SS 12 STN DEL CTR,MAPLE RIDGE,BC,3Y1Z2
600301044,Certs Test 4,RR 1 STN MAIN,ROCKLAND,ON,4K1K7
600301054,Certs Test 4,RR 4 STN MAIN,GODERICH,ON,7A3Y1
600301064,Certs Test 4,RR 3 STN MAIN,TRENTON,ON,8V5P6
600301074,Certs Test 4,RR 5 STN MAIN,PORT PERRY,ON,9L1B6
600301084,Certs Test 4,RR 31 STN PRESTON,CAMBRIDGE,ON,3H4R6
600301094,Certs Test 4,RR 2 SUCC BUREAU-CHEF,SHAWINIGAN,QC,9N6T6
600301104,Certs Test 4,RR 1 STN MAIN,PICKERING,ON,1V2P8
600301114,Certs Test 4,RR 1 STN LCD 1,BURLINGTON,ON,7R3X4
600301124,Certs Test 4,RR 1 STN MAIN,NEW GLASGOW,NS,2H5C4
600301134,Certs Test 4,RR 2 STN MAIN,FORT SASKATCHEWAN,AB,8L2N8
600301144,Certs Test 4,RR 9 STN MAIN,CHATHAM,ON,7M5T1
600301154,Certs Test 4,RR 1 STN MAIN,BRADFORD,ON,3Z2A4
600301164,Certs Test 4,RR 4 SUCC BUREAU-CHEF,DRUMMONDVILLE,QC,2B6V4
600301174,Certs Test 4,RR 5 STN MAIN,STRATHROY,ON,7G3H6
600301184,Certs Test 4,RR 6 STN MAIN,OWEN SOUND,ON,4K5N8
600301194,Certs Test 4,RR 1 STN MAIN,STONY PLAIN,AB,7Z1X1
600301204,Certs Test 4,RR 4 STN MAIN,DAUPHIN,MB,7N2T7
600301214,Certs Test 4,RR 1 SUCC BUREAU-CHEF,SEPT-ILES,QC,4R4K1
600301224,Certs Test 4,RR 3 STN MAIN,TIMMINS,ON,4N8R8
600301234,Certs Test 4,RR 2 LCD MAIN,SASKATOON,SK,7K3J5
600301244,Certs Test 4,RR 2 STN MAIN,RUSSELL,ON,4R1E5
600301254,Certs Test 4,RR 3 STN MAIN,KINGSTON,ON,7L4V2
600301264,Certs Test 4,RR 5 STN MAIN,PEMBROKE,ON,8A6W6
600301274,Certs Test 4,RR 1 STN MAIN,HANOVER,ON,4N3B8
600301284,Certs Test 4,RR 4 SUCC BUREAU-CHEF,BELOEIL,QC,3G4S6
600301294,Certs Test 4,RR 2 STN MAIN,INNISFAIL,AB,4G1T7
600301304,Certs Test 4,RR 2 SUCC BUREAU-CHEF,LA TUQUE,QC,9X3N7
600301314,Certs Test 4,RR 5 SUCC BUREAU-CHEF,MONT-LAURIER,QC,9L3G7
600301324,Certs Test 4,RR 2 STN MAIN,DAUPHIN,MB,7N2T5
600301334,Certs Test 4,RR 63 SUCC BUREAU-CHEF,SAINT-BASILE-LE-GRAND,QC,3N1M3
600301344,Certs Test 4,RR 5 SUCC BUREAU-CHEF,VAL-D'OR,QC,9P0C3
600301354,Certs Test 4,RR 4 STN MAIN,LACOMBE,AB,4L2N4
600301364,Certs Test 4,RR 2 STN MAIN,PORT STANLEY,ON,5L1J2
600301374,Certs Test 4,RR 3 LCD 1,RED DEER,AB,4N5E3
600301384,Certs Test 4,RR 1 STN MAIN,TIMMINS,ON,4N8R7
600301394,Certs Test 4,RR 1 STN MAIN,NORTH BAY,ON,1B8G2
600301404,Certs Test 4,RR 2 STN MAIN,ST. ALBERT,AB,8N1M9
600301414,Certs Test 4,RR 1 STN DELIVERY CENTRE,PETERBOROUGH,ON,9J6X2
600301424,Certs Test 4,RR 3 STN MAIN,DRAYTON VALLEY,AB,7A2A3
600301434,Certs Test 4,SS 4 STN MAIN,STEINBACH,MB,5G0N6
600301444,Certs Test 4,RR 7 LCD MAIN,WOODSTOCK,ON,4S7W2
600301454,Certs Test 4,RR 1 STN MAIN,WOODBRIDGE,ON,4L1A5
600301464,Certs Test 4,RR 3 STN MAIN,NAPANEE,ON,7R3K8
600301474,Certs Test 4,RR 2 STN MAIN,ALLISTON,ON,9R1V2
600301484,Certs Test 4,RR 4 STN MAIN,ROTHESAY,NB,2E4Z8
600301494,Certs Test 4,RR 32 STN PRESTON,CAMBRIDGE,ON,3H4R7
600301504,Certs Test 4,RR 33 STN MAIN,CHILLIWACK,BC,2P6H5
600301514,Certs Test 4,RR 1 STN MAIN,SARNIA,ON,7T7H2
600301524,Certs Test 4,RR 2 STN MAIN,ST MARYS,ON,4X1C5
600301534,Certs Test 4,RR 5 STN MAIN,SIMCOE,ON,3Y4K4
600301544,Certs Test 4,SS 2 STN MAIN,HUNTSVILLE,ON,1H2E3
600301554,Certs Test 4,SS 11 STN MAIN,CALEDONIA,ON,3W2G9
600301564,Certs Test 4,RR 13 SUCC BUREAU-CHEF,LA SARRE,QC,9Z2X2
600301574,Certs Test 4,SS 5 STN MAIN,HUNTSVILLE,ON,1H2E6
600301584,Certs Test 4,RR 4 STN MAIN,OWEN SOUND,ON,4K5N6
600301594,Certs Test 4,RR 4 STN MAIN,NORTH BAY,ON,1B8G5
600301604,Certs Test 4,RR 1 STN MAIN,HUNTSVILLE,ON,1H2J2
600301614,Certs Test 4,SS 3 STN B,STITTSVILLE,ON,2S1C2
600301624,Certs Test 4,RR 6 SUCC BUREAU-CHEF,SAINT-JEAN-CHRYSOSTOME,QC,6Z2L1
600301634,Certs Test 4,RR 91 SUCC LEVIS,LEVIS,QC,6V6N4
600301644,Certs Test 4,SS 2 STN MAIN,BRACEBRIDGE,ON,1L1X9
600301654,Certs Test 4,RR 3 SUCC BUREAU-CHEF,NICOLET,QC,3T1T7
600301664,Certs Test 4,SS 5 STN MAIN,TABER,AB,1G0A1
600301674,Certs Test 4,RR 2 STN MAIN,BOWMANVILLE,ON,1C3K3
600301684,Certs Test 4,RR 4 STN MAIN,OLDS,AB,4H1T8
600301694,Certs Test 4,RR 1 STN MAIN,OWEN SOUND,ON,4K5N3
600301704,Certs Test 4,SS 2 STN MAIN,MEADOW LAKE,SK,9X1T8
600301714,Certs Test 4,RR 6 STN GALT,CAMBRIDGE,ON,1R5S7
600301724,Certs Test 4,RR 4 STN MAIN,HUNTSVILLE,ON,1H2J6
600301734,Certs Test 4,RR 3 STN MAIN,PORTAGE LA PRAIRIE,MB,1N3A3
600301744,Certs Test 4,SS 4 STN MAIN,ROCKLAND,ON,4K1K9
600301754,Certs Test 4,RR 1 STN MAIN,FORT SASKATCHEWAN,AB,8L2N7
600301764,Certs Test 4,SS 77 SUCC BUREAU-CHEF,REPENTIGNY,QC,6A5H5
600301774,Certs Test 4,RR 3 STN MAIN,BARRHEAD,AB,7N1N4
600301784,Certs Test 4,RR 3 STN MAIN,GRANDE PRAIRIE,AB,8V5N3
600301794,Certs Test 4,RR 2 STN MAIN,BROCKVILLE,ON,6V5T2
600301804,Certs Test 4,SS 103 SUCC BUREAU-CHEF,CHAMBLY,QC,3L4A7
600301814,Certs Test 4,RR 6 STN MAIN,TILLSONBURG,ON,4G4G9
600301824,Certs Test 4,RR 7 LCD ROYAL CITY MAIL,GUELPH,ON,1H6J4
600301834,Certs Test 4,RR 1 STN MAIN,GEORGETOWN,ON,7G4S4
600301844,Certs Test 4,RR 5 LCD MAIN,SASKATOON,SK,7K3J8
600301854,Certs Test 4,RR 3 SUCC BUREAU-CHEF,SAINTE-JULIE,QC,3E1Y2
600301864,Certs Test 4,RR 2 STN TECUMSEH,WINDSOR,ON,8N2M1
600301874,Certs Test 4,RR 1 STN MAIN,KESWICK,ON,4P3C8
600301884,Certs Test 4,SS 103 SUCC BUREAU-CHEF,GRANBY,QC,2H0R2
600301894,Certs Test 4,RR 66 LCD S,OTTAWA,ON,1T3Z4
600301904,Certs Test 4,RR 7 LCD 1,CALGARY,AB,2P2G7
600301914,Certs Test 4,RR 14 STN P,THUNDER BAY,ON,7B5E5
600301924,Certs Test 4,RR 2 STN MAIN,PONOKA,AB,4J1R2
600301934,Certs Test 4,RR 6 STN MAIN,ST THOMAS,ON,5P3T1
600301944,Certs Test 4,RR 1 STN MAIN,CLARENVILLE,NL,5A3A1
600301954,Certs Test 4,RR 2 STN MAIN,NEW GLASGOW,NS,2H5C5
600301964,Certs Test 4,RR 1 STN MAIN,KENTVILLE,NS,4N3V7
600301974,Certs Test 4,RR 5 STN MAIN,YARMOUTH,NS,5A4A9
600301984,Certs Test 4,RR 2 STN MAIN,SUMMERSIDE,PE,1N4J8
600301994,Certs Test 4,RR 1 SUCC BUREAU-CHEF,MATANE,QC,4W3M7
600302010,Certs Test 4,PO BOX 9434 STN PROV GOVT,VICTORIA,BC,8W9V3
600302020,Certs Test 4,PO BOX 6249 STN J,OTTAWA,ON,2A1T3
600302030,Certs Test 4,PO BOX 45019 RPO BRENTWOOD,CALGARY,AB,2L1Y4
600302040,Certs Test 4,CP 50034 CSP PLACE MT-MARIE,LEVIS,QC,6V8T2
600302050,Certs Test 4,PO BOX 258 STN MAIN,GRAVENHURST,ON,1P1T6
600302060,Certs Test 4,PO BOX 4030 STN DEL CTR,ABBOTSFORD,BC,2S4P4
600302070,Certs Test 4,PO BOX 805 STN LCD 1,HAMILTON,ON,8N3M8
600302080,Certs Test 4,PO BOX 67908 STN BRM B,TORONTO,ON,7Y4N1
600302090,Certs Test 4,PO BOX 22 STN MAIN,AURORA,ON,4G3H1
600302100,Certs Test 4,PO BOX 14 STN MAIN,BOWMANVILLE,ON,1C3K8
600302110,Certs Test 4,PO BOX 2026 STN MAIN,ROTHESAY,NB,2E5C1
600302120,Certs Test 4,CP 4076 SUCC BUREAU-CHEF,PONT-ROUGE,QC,3H3R4
600302130,Certs Test 4,CP 2013 SUCC BUREAU-CHEF,BAIE-COMEAU,QC,5C2S8
600302140,Certs Test 4,PO BOX 171 STN MAIN,GREELY,ON,4P1N5
600302150,Certs Test 4,CP 636 SUCC BUREAU-CHEF,THETFORD MINES,QC,6G5T6
600302160,Certs Test 4,PO BOX 46046 RPO BEACON HILL,GLOUCESTER,ON,1J9M7
600302170,Certs Test 4,PO BOX 5697 STN MAIN,LACOMBE,AB,4L1X3
600302180,Certs Test 4,PO BOX 9002 STN C,KITCHENER,ON,2G4J3
600302190,Certs Test 4,PO BOX 2016 STN MAIN,WHITECOURT,AB,7S1P7
600302200,Certs Test 4,PO BOX 1349 STN LCD MALTON,MISSISSAUGA,ON,4T4C2
600302210,Certs Test 4,CP 1282 SUCC BUREAU-CHEF,SOREL-TRACY,QC,3P7L5
600302220,Certs Test 4,PO BOX 22027 RPO PARKLAND,YORKTON,SK,3N4B2
600302230,Certs Test 4,PO BOX 2874 STN M,CALGARY,AB,2P3C3
600302240,Certs Test 4,PO BOX 37024 RPO SOUTHDALE,LONDON,ON,6E3T3
600302250,Certs Test 4,PO BOX 75637 RPO BROADVIEW,TORONTO,ON,4M3M5
600302260,Certs Test 4,PO BOX 6880 STN MAIN,WETASKIWIN,AB,9A2G5
600302270,Certs Test 4,PO BOX 829 STN MAIN,GRAND FALLS-WINDSOR,NL,2A2P7
600302280,Certs Test 4,PO BOX 5554 STN MAIN,LACOMBE,AB,4L1X2
600302290,Certs Test 4,PO BOX 990 STN MAIN,KIRKLAND LAKE,ON,2N3L1
600302300,Certs Test 4,PO BOX 20003 RPO SOUTHBROOK,MAPLE,ON,6A4M4
600302310,Certs Test 4,PO BOX 315 STN MAIN,ACTON,ON,7J2M4
600302320,Certs Test 4,PO BOX 1789 STN MAIN,SASKATOON,SK,7K3S1
600302330,Certs Test 4,PO BOX 97103 LCD 2,MISSISSAUGA,ON,4Y0A6
600302340,Certs Test 4,PO BOX 889 STN MAIN,KINGSTON,ON,7L4X8
600302350,Certs Test 4,PO BOX 3052 STN MAIN,ST CATHARINES,ON,2R7E3
600302360,Certs Test 4,PO BOX 590 STN MAIN,KINGSTON,ON,7L4X1
600302370,Certs Test 4,PO BOX 3606 STN MAIN,WAINWRIGHT,AB,9W1T5
600302380,Certs Test 4,PO BOX 833 STN DON MILLS,NORTH YORK,ON,3C4G5
600302390,Certs Test 4,PO BOX 259 STN MAIN,PORT MOODY,BC,3H3E1
600302400,Certs Test 4,PO BOX 2058 STN MAIN,COLD LAKE,AB,9M1P5
600302410,Certs Test 4,PO BOX 2589 STN CENTRAL,CHARLOTTETOWN,PE,1A8C3
600302420,Certs Test 4,PO BOX 4489 STN A,TORONTO,ON,5W1V9
600302430,Certs Test 4,PO BOX 841 STN WATERLOO,WATERLOO,ON,2J4C3
600302440,Certs Test 4,PO BOX 41 STN MAIN,THOROLD,ON,2V3Y7
600302450,Certs Test 4,PO BOX 294 STN MAIN,EDMUNDSTON,NB,3V3K9
600302460,Certs Test 4,PO BOX 1095 STN TORONTO DOM,TORONTO,ON,5K1P2
600302470,Certs Test 4,PO BOX 4823 STN TERMINAL,VANCOUVER,BC,6B4A4
600302480,Certs Test 4,PO BOX 730 STN MAIN,GOULDS,NL,1S1G7
600302490,Certs Test 4,PO BOX 1004 STN MAIN,INGERSOLL,ON,5C3V6
600302500,Certs Test 4,PO BOX 2994 STN MAIN,WAINWRIGHT,AB,9W1S9
600302510,Certs Test 4,PO BOX 5314 STN MAIN,EDSON,AB,7E1T5
600302520,Certs Test 4,PO BOX 582 STN LAMBETH,LONDON,ON,6P1R2
600302530,Certs Test 4,PO BOX 9274 STN PROV GOVT,VICTORIA,BC,8W9J6
600302540,Certs Test 4,CP 37 SUCC BUREAU-CHEF,VICTORIAVILLE,QC,6P6S4
600302550,Certs Test 4,PO BOX 645 STN A,NANAIMO,BC,9R5L9
600302560,Certs Test 4,PO BOX 3112 STN MAIN,WALLACEBURG,ON,8A9R4
600302570,Certs Test 4,PO BOX 94078 RPO BEDFORD PARK,TORONTO,ON,4N3R1
600302580,Certs Test 4,PO BOX 950 STN MAIN,MORDEN,MB,6M1A8
600302590,Certs Test 4,PO BOX 294 STN TORONTO DOM,TORONTO,ON,5K1K2
600302600,Certs Test 4,PO BOX 1340 STN A,COMOX,BC,9M7Z8
600302610,Certs Test 4,PO BOX 4611 STN A,TORONTO,ON,5W1V9
600302620,Certs Test 4,PO BOX 34526 RPO PEMBERTON PLAZA,NORTH VANCOUVER,BC,7P3N8
600302630,Certs Test 4,PO BOX 3146 STN MAIN,WALLACEBURG,ON,8A9W2
600302640,Certs Test 4,PO BOX 2339 STN MAIN,ORILLIA,ON,3V6V7
600302650,Certs Test 4,PO BOX 3385 STN MAIN,VERMILION,AB,9X2B3
600302660,Certs Test 4,PO BOX 21035 RPO CRESCENT HTS,MEDICINE HAT,AB,1A8M3
600302670,Certs Test 4,PO BOX 3864 STN MAIN,STEINBACH,MB,5G1P9
600302680,Certs Test 4,PO BOX 3091 STN MAIN,WALLACEBURG,ON,8A9N1
600302690,Certs Test 4,PO BOX 2994 STN MAIN,PERTH-ANDOVER,NB,7H5M2
600302700,Certs Test 4,PO BOX 3085 STN MAIN,WELLAND,ON,3B5R6
600302710,Certs Test 4,PO BOX 3243 STN MAIN,ST MARYS,ON,4X1A8
600302720,Certs Test 4,PO BOX 1374 STN A,SYDNEY,NS,1P6K3
600302730,Certs Test 4,PO BOX 7518 STN MAIN,EDSON,AB,7E1V7
600302740,Certs Test 4,PO BOX 1066 STN MAIN,THOMPSON,MB,8N1N9
600302750,Certs Test 4,PO BOX 731 STN MAIN,VEGREVILLE,AB,9C1R8
600302760,Certs Test 4,PO BOX 712 STN M,CALGARY,AB,2P2J3
600302770,Certs Test 4,PO BOX 25022 RPO OGOPOGO,PENTICTON,BC,2A7N7
600302780,Certs Test 4,PO BOX 11009 STN MAIN,SURREY,BC,3T0B9
600302790,Certs Test 4,PO BOX 1206 STN MAIN,COCHRANE,AB,4C1B2
600302800,Certs Test 4,PO BOX 4612 STN MAIN,PONOKA,AB,4J1S4
600302810,Certs Test 4,CP 30025 CSP CARREFOUR,GRANBY,QC,2G9R8
600302820,Certs Test 4,PO BOX 3848 STN MAIN,DEER LAKE,NL,8A3M2
600302830,Certs Test 4,PO BOX 9384 STN MAIN,SAINT JOHN,NB,2L4W7
600302840,Certs Test 4,PO BOX 1994 STN POSTAL BOX CTR,RED DEER,AB,4N6W6
600302850,Certs Test 4,PO BOX 2997 STN MAIN,STEINBACH,MB,5G1P4
600302860,Certs Test 4,CP 142 SUCC BUREAU-CHEF,MONT-JOLI,QC,5H3K9
600302870,Certs Test 4,PO BOX 22011 RPO CAMBRIAN MALL,SAULT STE. MARIE,ON,6B6H4
600302880,Certs Test 4,PO BOX 74571 RPO KITSILANO,VANCOUVER,BC,6K4P4
600302890,Certs Test 4,PO BOX 969 STN MAIN,SARNIA,ON,7T7K2
600302900,Certs Test 4,PO BOX 9990 STN LCD 3,STONEY CREEK,ON,8G3Y4
600302910,Certs Test 4,PO BOX 2376 STN MAIN,DAWSON CREEK,BC,1G4T9
600302920,Certs Test 4,PO BOX 88515 RPO NEWTON,SURREY,BC,3W0X1
600302930,Certs Test 4,CP 1668 SUCC ST-JACQUES,MONTREAL,QC,3C3A2
600302940,Certs Test 4,CP 440 SUCC H,MONTREAL,QC,3G2L1
600302950,Certs Test 4,PO BOX 383 STN MAIN,BRENTWOOD BAY,BC,8M1R3
600302960,Certs Test 4,PO BOX 1303 STN LAMBETH,LONDON,ON,6P1R2
600302970,Certs Test 4,PO BOX 7839 STN MAIN,EDSON,AB,7E1V9
600302980,Certs Test 4,PO BOX 1734 STN MAIN,BROCKVILLE,ON,6V6K8
600302990,Certs Test 4,PO BOX 7305 STN AGINCOURT,SCARBOROUGH,ON,1S3C6
600303005,Certs Test 4,PO BOX 1016,SALMO,BC,0G1Z0
600303015,Certs Test 4,PO BOX 322,HASTINGS,ON,0L1Y0
600303025,Certs Test 4,RR 1,ASSINIBOIA,SK,0H0B0
600303035,Certs Test 4,GD,EASTERVILLE,MB,0C0V0
600303045,Certs Test 4,RR 1,LA POCATIERE,QC,0R1Z0
600303055,Certs Test 4,PO BOX 2061,CRESTON,BC,0B1G0
600303065,Certs Test 4,RR 1,ELGINBURG,ON,0H1M0
600303075,Certs Test 4,RR 2,PARADISE VALLEY,AB,0B3R0
600303085,Certs Test 4,PO BOX 371,ODESSA,ON,0H2H0
600303095,Certs Test 4,RR 2,L'ORIGNAL,ON,0B1K0
600303105,Certs Test 4,PO BOX 936,TURNER VALLEY,AB,0L2A0
600303115,Certs Test 4,RR 1,BAILIEBORO,ON,0L1B0
600303125,Certs Test 4,RR 1,SAINT-GABRIEL-DE-VALCARTIER,QC,0A4S0
600303135,Certs Test 4,PO BOX 138,STEPHENVILLE CROSSING,NL,0N2C0
600303145,Certs Test 4,PO BOX 100,COLEMAN,PE,0B1H0
600303155,Certs Test 4,RR 1,BORDEN,SK,0K0N0
600303165,Certs Test 4,RR 1,BRADWELL,SK,0K0P0
600303175,Certs Test 4,RR 5,INVERMERE,BC,0A1K5
600303185,Certs Test 4,GD,FORT SMITH,NT,0E0P0
600303195,Certs Test 4,CP 97,SAINT-ALEXIS-DE-MATAPEDIA,QC,0J2E0
600303205,Certs Test 4,RR 2,ORTON,ON,0N1N0
600303215,Certs Test 4,PO BOX 143,BATH,ON,0H1G0
600303225,Certs Test 4,RR 1,PIPESTONE,MB,0M1T0
600303235,Certs Test 4,PO BOX 58,WHATI,NT,0E1P0
600303245,Certs Test 4,RR 1,NINGA,MB,0K1S0
600303255,Certs Test 4,RR 1,GRAFTON,ON,0K2G0
600303265,Certs Test 4,RR 1,PILGER,SK,0K3G0
600303275,Certs Test 4,RR 4,DUNDALK,ON,0C1B0
600303285,Certs Test 4,PO BOX 87,THICKET PORTAGE,MB,0B1R0
600303295,Certs Test 4,RR 6,KOKSILAH,BC,0R2C0
600303305,Certs Test 4,RR 1,CREDITON,ON,0M1M0
600303315,Certs Test 4,PO BOX 5041,NEW LISKEARD,ON,0J1P0
600303325,Certs Test 4,PO BOX 302,ROSENORT,MB,0G1W0
600303335,Certs Test 4,GD,CROTON,ON,0P1K0
600303345,Certs Test 4,PO BOX 218,BELAIR,MB,0E0E0
600303355,Certs Test 4,PO BOX 158,VEREGIN,SK,0A4H0
600303365,Certs Test 4,RR 1,SOUTH JUNCTION,MB,0A1Y0
600303375,Certs Test 4,RR 1,SAINTE-RITA,QC,0L4G0
600303385,Certs Test 4,RR 2,EAST BROUGHTON STATION,QC,0N1H0
600303395,Certs Test 4,PO BOX 2860,HUMBOLDT,SK,0K2A0
600303405,Certs Test 4,RR 1,SAINT-URBAIN-DE-CHARLEVOIX,QC,0A4K0
600303415,Certs Test 4,RR 3,CLIFFORD,ON,0G1M0
600303425,Certs Test 4,CP 364,SAINT-PAUL-D'ABBOTSFORD,QC,0E1A0
600303435,Certs Test 4,PO BOX 39,SELDOM,NL,0G3Z0
600303445,Certs Test 4,GD,EDBERG,AB,0B1J0
600303455,Certs Test 4,RR 1,MAYVIEW,SK,0J1S0
600303465,Certs Test 4,RR 2,SAINT-ISIDORE,QC,0S2S0
600303475,Certs Test 4,GD,SAULNIERVILLE,NS,0W2Z0
600303485,Certs Test 4,RR 1,THORBURN,NS,0K1W0
600303495,Certs Test 4,GD,MEOTA,SK,0M1X0
600303505,Certs Test 4,GD,PASQUA,SK,0G5M0
600303515,Certs Test 4,RR 2,CAMPBELLCROFT,ON,0A1B0
600303525,Certs Test 4,GD,BUCHANS JUNCTION,NL,0H1H0
600303535,Certs Test 4,PO BOX 131,PLUMAS,MB,0J1P0
600303545,Certs Test 4,RR 2,COALMONT,BC,0X1G0
600303555,Certs Test 4,RR 3,PEACHLAND,BC,0H1X3
600303565,Certs Test 4,PO BOX 483,COPPER CLIFF,ON,0M1N0
600303575,Certs Test 4,RR 3,EXETER,ON,0M1S5
600303585,Certs Test 4,RR 1,TUXFORD,SK,0H4C0
600303595,Certs Test 4,GD,HARROW,ON,0R1G0
600303605,Certs Test 4,PO BOX 115,ENGLEFELD,SK,0K1N0
600303615,Certs Test 4,RR 1,CARVEL,AB,0E0H0
600303625,Certs Test 4,RR 3,GRANVILLE FERRY,NS,0S1K0
600303635,Certs Test 4,PO BOX 202,VAN ANDA,BC,0N3K0
600303645,Certs Test 4,GD,BARACHOIS BROOK,NL,0N1B0
600303655,Certs Test 4,GD,SEVEN PERSONS,AB,0K1Z0
600303665,Certs Test 4,PO BOX 66,COWAN,MB,0L0L0
600303675,Certs Test 4,CP 89,HOWICK,QC,0S1G0
600303685,Certs Test 4,GD,ROSEAU RIVER,MB,0A1P0
600303695,Certs Test 4,PO BOX 851,GRANTON,ON,0M1V0
600303705,Certs Test 4,RR 1,LA TRINITE-DES-MONTS,QC,0K1B0
600303715,Certs Test 4,CP 60,SAINTE-GERTRUDE-MANNEVILLE,QC,0Y2L0
600303725,Certs Test 4,RR 3,WINDSOR,NS,0N2T0
600303735,Certs Test 4,RR 1,KIAMIKA,QC,0W1G0
600303745,Certs Test 4,GD,TRAYTOWN,NL,0G4K0
600303755,Certs Test 4,GD,COUTTS,AB,0K0N0
600303765,Certs Test 4,GD,WOODFORDS,NL,0A4L0
600303775,Certs Test 4,PO BOX 367,GRETNA,MB,0G0V0
600303785,Certs Test 4,GD,WOODMORE,MB,0A2M0
600303795,Certs Test 4,CP 969,SAINT-DONAT-DE-MONTCALM,QC,0T2C0
600303805,Certs Test 4,RR 1,KENVILLE,MB,0L0Z0
600303815,Certs Test 4,CP 176,POULARIES,QC,0Z3E0
600303825,Certs Test 4,GD,CONISTON,ON,0M1M0
600303835,Certs Test 4,RR 6,DRESDEN,ON,0P1M0
600303845,Certs Test 4,RR 2,DUFFIELD,AB,0E0N0
600303855,Certs Test 4,PO BOX 12,LA RIVIERE,MB,0G1A0
600303865,Certs Test 4,CP 1079,SAINT-ELIE-DE-CAXTON,QC,0X2N0
600303875,Certs Test 4,GD,LAKE COWICHAN,BC,0R2G0
600303885,Certs Test 4,PO BOX 46,MAKKOVIK,NL,0P1J0
600303895,Certs Test 4,GD,BOTWOOD,NL,0H1E0
600303905,Certs Test 4,PO BOX 38,MAIN POINT,NL,0G3G0
600303915,Certs Test 4,GD,GUY,AB,0H1Y0
600303925,Certs Test 4,PO BOX 319,CARMANVILLE,NL,0G1N0
600303935,Certs Test 4,RR 1,WEYMOUTH,NS,0W3T0
600303945,Certs Test 4,RR 1,BRISTOL,QC,0X1G0
600303955,Certs Test 4,RR 1,FEVERSHAM,ON,0C1C0
600303965,Certs Test 4,PO BOX 61,DEMAINE,SK,0L0R0
600303975,Certs Test 4,RR 1,SAINT-DAMIEN-DE-BUCKLAND,QC,0R2Y0
600303985,Certs Test 4,RR 1,POINTE-A-LA-CROIX,QC,0C1L0
600303995,Certs Test 4,PO BOX 555,MCLAUGHLIN,AB,0B2Y0
600304010,Certs Test 4,2016 DES PIONNIERS AVE,BALMORAL,NB,8E1G3
600304020,Certs Test 4,8 ASHLEY PARK RD,ETOBICOKE,ON,9A4E1
600304030,Certs Test 4,1271 RUE DU CHAMBERTIN,QUEBEC,QC,3E1S3
600304040,Certs Test 4,3494 RUE DU ROI-GEORGES,JONQUIERE,QC,7S5T5
600304050,Certs Test 4,4872 AV LACOMBE,MONTREAL,QC,3W1R5
600304060,Certs Test 4,223 RUE SAINT-PIERRE,RIVIERE-DU-LOUP,QC,5R4B3
600304070,Certs Test 4,175 RUE SAINT-ANDRE,RIVIERE-DU-LOUP,QC,5R3K6
600304080,Certs Test 4,842 BROADVIEW AVE,TORONTO,ON,4K2R1
600304090,Certs Test 4,277 HARVARD AVE,WINNIPEG,MB,3M0K2
600304100,Certs Test 4,19 IRVING ST,DARTMOUTH,NS,2W1K1
600304110,Certs Test 4,388 JENNIFER HEIL WAY,SPRUCE GROVE,AB,7X3Z5
600304120,Certs Test 4,92 NOTTINGHAM PT,SHERWOOD PARK,AB,8A3A8
600304130,Certs Test 4,89 PORT ROYAL TRAIL,SCARBOROUGH,ON,1V2H1
600304140,Certs Test 4,105 BOUL SAINTE-ANNE,RIMOUSKI,QC,5M1C2
600304150,Certs Test 4,14 NOGANOSH RD,SCARBOROUGH,ON,1L1K5
600304160,Certs Test 4,9 RUE BON-AIR,LA MALBAIE,QC,5A2R5
600304170,Certs Test 4,67 AV BOISVERT,PORT-CARTIER,QC,5B1X7
600304180,Certs Test 4,292 STRATHMORE BLVD,TORONTO,ON,4J1P8
600304190,Certs Test 4,5869 WHITEHORN AVE,MISSISSAUGA,ON,5V2W7
600304200,Certs Test 4,1750 BOUL SAINT-JEAN-BAPTISTE,CHICOUTIMI,QC,7H7V1
600304210,Certs Test 4,18 RUE PERRAS,GATINEAU,QC,8Y6K1
600304220,Certs Test 4,5 BOWMAN ST,TORONTO,ON,4X1V1
600304230,Certs Test 4,2382 IRIS ST,OTTAWA,ON,2C1C6
600304240,Certs Test 4,16 ELDERBERRY CRT,ST. ALBERT,AB,8N6X4
600304250,Certs Test 4,9 MEREDITH ST,KILLARNEY ROAD,NB,3A0T8
600304260,Certs Test 4,5904 AV VERNEUIL,ANJOU,QC,1K3J8
600304270,Certs Test 4,405 TOWER ST,SUMMERSIDE,PE,1N4Z7
600304280,Certs Test 4,11289 97 AVE,WESTLOCK,AB,7P2M2
600304290,Certs Test 4,1563 CEDARGLEN RD,VICTORIA,BC,8N2B1
600304300,Certs Test 4,7382 MARKET CROSS,BURNABY,BC,5J0A2
600304310,Certs Test 4,91 DALMATIAN CRES,SCARBOROUGH,ON,1C4W8
600304320,Certs Test 4,249 MARIER AVE,VANIER,ON,1L5P9
600304330,Certs Test 4,279 MARINE DR,CLARENVILLE,NL,5A1N1
600304340,Certs Test 4,4822 RUE BANNANTYNE,VERDUN,QC,4G1E7
600304350,Certs Test 4,82 CINNABAR WAY,STITTSVILLE,ON,2S1Y7
600304360,Certs Test 4,536 RUE SIMONET,L'ILE-BIZARD,QC,9C2R9
600304370,Certs Test 4,3189 STORNOWAY CIR,OAKVILLE,ON,6M5H7
600304380,Certs Test 4,719 AV LAPORTE,MONTREAL,QC,4C2P4
600304390,Certs Test 4,1666 FREEMAN AVE,VICTORIA,BC,8P1P6
600304400,Certs Test 4,218 RUE DES CORMORANS,SHERBROOKE,QC,1R0S4
600304410,Certs Test 4,1389 HANCOX CRT,PETERBOROUGH,ON,9K2M1
600304420,Certs Test 4,54 KENILWORTH AVE S,HAMILTON,ON,8K2S8
600304430,Certs Test 4,916 11 AVE SE,CALGARY,AB,2G0Z2
600304440,Certs Test 4,5 PEPPERIDGE WAY,KANATA,ON,2K3B4
600304450,Certs Test 4,13 GASPE RD,BRAMPTON,ON,6S0A4
